{"type":"FeatureCollection","features":[{"type":"Feature","id":"d240229","properties":{"id":"d240229","name":"Крылатское","nameEn":"Krylatskoye","tier":"commons","price":2,"area":12.1,"okrug":"ЗАО","okrugEn":"WAO","center":[37.41452,55.7648]},"geometry":{"type":"Polygon","coordinates":[[[37.422558,55.7451764],[37.4309885,55.749964],[37.4369216,55.7492638],[37.4576323,55.75582],[37.4634259,55.7601907],[37.4645205,55.7623834],[37.4642718,55.7652279],[37.4552656,55.7741771],[37.4482727,55.7773271],[37.4341209,55.7741996],[37.4085801,55.7757622],[37.4018275,55.7717981],[37.3982596,55.7711769],[37.3867388,55.7709266],[37.3797521,55.7723483],[37.3708646,55.7710135],[37.3702616,55.7730269],[37.3653882,55.7718121],[37.422558,55.7451764]]]}},{"type":"Feature","id":"d364001","properties":{"id":"d364001","name":"Мещанский","nameEn":"Meshchansky","tier":"center","price":25,"area":4.5,"okrug":"ЦАО","okrugEn":"CAO","center":[37.62705,55.77734]},"geometry":{"type":"Polygon","coordinates":[[[37.624786,55.7595345],[37.6300531,55.7608296],[37.6306074,55.7634126],[37.6286781,55.7631076],[37.6314796,55.7665279],[37.6325778,55.772651],[37.637267,55.7720615],[37.6412894,55.7797075],[37.6448401,55.7798433],[37.6417328,55.7881261],[37.6420771,55.790161],[37.6402463,55.7924514],[37.642957,55.7930115],[37.635,55.7971703],[37.6346377,55.7918923],[37.6163097,55.793116],[37.6168144,55.7865337],[37.6151361,55.7835353],[37.615482,55.7826854],[37.6146295,55.7835],[37.6123942,55.7825647],[37.6153273,55.7822546],[37.6149324,55.7815912],[37.6172478,55.7799329],[37.6189362,55.7736414],[37.6209955,55.773396],[37.6214026,55.7669027],[37.6198963,55.7652602],[37.620909,55.7589912],[37.624786,55.7595345]]]}},{"type":"Feature","id":"d364551","properties":{"id":"d364551","name":"Сокольники","nameEn":"Sokolniki","tier":"district","price":8,"area":10.2,"okrug":"ВАО","okrugEn":"EAO","center":[37.68649,55.8035]},"geometry":{"type":"Polygon","coordinates":[[[37.6690882,55.8213356],[37.65072,55.7994188],[37.6501162,55.7927927],[37.651542,55.78936],[37.6882667,55.781899],[37.6993516,55.7819726],[37.6991318,55.7883665],[37.7054964,55.7927954],[37.6986718,55.7998797],[37.6992306,55.802355],[37.7018891,55.8058665],[37.7002608,55.809693],[37.6948191,55.8109421],[37.6953203,55.8117121],[37.6932468,55.8106118],[37.6851663,55.8154957],[37.687575,55.8171194],[37.6854385,55.816857],[37.6774629,55.8190546],[37.6707749,55.82438],[37.6690882,55.8213356]]]}},{"type":"Feature","id":"d428431","properties":{"id":"d428431","name":"Хорошёво-Мнёвники","nameEn":"Khoroshyovo-Mnyovniki","tier":"district","price":8,"area":18,"okrug":"СЗАО","okrugEn":"NWAO","center":[37.47491,55.77726]},"geometry":{"type":"Polygon","coordinates":[[[37.5038208,55.7910836],[37.5033816,55.7916782],[37.499803,55.7889469],[37.4891469,55.7876667],[37.4687234,55.7894869],[37.4545483,55.7918138],[37.4546058,55.7944272],[37.4461022,55.7944941],[37.445553,55.7925451],[37.4396537,55.7887355],[37.4295242,55.7861872],[37.4232948,55.7872614],[37.4179973,55.7915441],[37.4127153,55.792139],[37.4103355,55.7914293],[37.4040754,55.7824227],[37.4030883,55.7790922],[37.4040754,55.7774751],[37.4085801,55.7757622],[37.4341209,55.7741996],[37.4482727,55.7773271],[37.4552656,55.7741771],[37.4639901,55.7657713],[37.4646628,55.7632953],[37.4634259,55.7601907],[37.4554436,55.7547815],[37.4392216,55.7505309],[37.4373764,55.7496856],[37.4363477,55.7478732],[37.4373777,55.7464239],[37.4444587,55.7426072],[37.4553163,55.7406021],[37.4648006,55.7428971],[37.4741561,55.7485012],[37.4761731,55.7522932],[37.476731,55.7559641],[37.476388,55.7645104],[37.4794184,55.7675454],[37.4871806,55.7681941],[37.4920518,55.7673608],[37.501064,55.7643671],[37.5139298,55.7584219],[37.5219435,55.761509],[37.5072362,55.7774524],[37.5038208,55.7910836]]]}},{"type":"Feature","id":"d431464","properties":{"id":"d431464","name":"Щукино","nameEn":"Shchukino","tier":"commons","price":2,"area":7.9,"okrug":"СЗАО","okrugEn":"NWAO","center":[37.47661,55.79714]},"geometry":{"type":"Polygon","coordinates":[[[37.499803,55.7889469],[37.5033816,55.7916782],[37.5038208,55.7910836],[37.5028537,55.7943493],[37.4878979,55.8121021],[37.4868576,55.815334],[37.4797029,55.8151045],[37.4678877,55.8116079],[37.4574808,55.8110744],[37.4528177,55.8116766],[37.4489087,55.8140135],[37.446496,55.8100754],[37.4461367,55.8079911],[37.4476344,55.8026167],[37.4461022,55.7944941],[37.4546058,55.7944272],[37.4545483,55.7918138],[37.4762767,55.788531],[37.4895192,55.787653],[37.499803,55.7889469]]]}},{"type":"Feature","id":"d434560","properties":{"id":"d434560","name":"Строгино","nameEn":"Strogino","tier":"commons","price":2,"area":16.7,"okrug":"СЗАО","okrugEn":"NWAO","center":[37.39211,55.79631]},"geometry":{"type":"Polygon","coordinates":[[[37.4464328,55.8065481],[37.44124,55.8087428],[37.4301679,55.8088392],[37.4198682,55.8115161],[37.4148442,55.8150481],[37.4141033,55.8163943],[37.4144609,55.8191356],[37.4071223,55.8255725],[37.393696,55.8291697],[37.3878905,55.8097622],[37.3849343,55.8090023],[37.3862501,55.8087495],[37.3859825,55.8073094],[37.3867855,55.8069524],[37.3846538,55.8032365],[37.3744812,55.7923635],[37.3678444,55.791361],[37.36724,55.7903819],[37.370601,55.7881919],[37.3690717,55.7827259],[37.3688853,55.7730383],[37.3702616,55.7730269],[37.3708646,55.7710135],[37.3797521,55.7723483],[37.3867388,55.7709266],[37.4018275,55.7717981],[37.4085801,55.7757622],[37.4040754,55.7774751],[37.4031312,55.7808057],[37.4103355,55.7914293],[37.4127153,55.792139],[37.4179973,55.7915441],[37.4232948,55.7872614],[37.4295242,55.7861872],[37.4383023,55.7880778],[37.445553,55.7925451],[37.4476344,55.8026167],[37.4464328,55.8065481]]]}},{"type":"Feature","id":"d444812","properties":{"id":"d444812","name":"Кузьминки","nameEn":"Kuzminki","tier":"commons","price":2,"area":7.9,"okrug":"ЮВАО","okrugEn":"SEAO","center":[37.77622,55.69958]},"geometry":{"type":"Polygon","coordinates":[[[37.7872374,55.6903183],[37.7895141,55.6906717],[37.7945449,55.707374],[37.7806651,55.7092418],[37.7743975,55.7168426],[37.7475983,55.7099278],[37.7478168,55.7077911],[37.745303,55.7081271],[37.7559618,55.6916568],[37.7556934,55.6907633],[37.7591187,55.6902121],[37.760854,55.6910256],[37.7611915,55.6887409],[37.7626337,55.6881278],[37.7641678,55.6884381],[37.7850256,55.683413],[37.7888801,55.6812958],[37.7925022,55.6831211],[37.7983293,55.6801875],[37.8025289,55.6804869],[37.8056978,55.6875887],[37.7985774,55.6889831],[37.7911241,55.6871052],[37.7876734,55.6886098],[37.7872374,55.6903183]]]}},{"type":"Feature","id":"d444908","properties":{"id":"d444908","name":"Донской","nameEn":"Donskoy","tier":"district","price":8,"area":5.7,"okrug":"ЮАО","okrugEn":"SAO","center":[37.6051,55.71012]},"geometry":{"type":"Polygon","coordinates":[[[37.5887529,55.7071218],[37.5873424,55.7063265],[37.5961214,55.6961337],[37.6037381,55.6905249],[37.6125916,55.6891048],[37.6288682,55.6917492],[37.6285727,55.7052553],[37.6209921,55.7060521],[37.6113443,55.704309],[37.6064078,55.7095217],[37.6061565,55.7110689],[37.6082869,55.7167305],[37.6136171,55.7166503],[37.613656,55.7198206],[37.6155773,55.7200829],[37.6143913,55.7209991],[37.6100957,55.7214266],[37.6093473,55.7195213],[37.60031,55.7213012],[37.5940838,55.7183252],[37.5922285,55.7194285],[37.5908118,55.7177465],[37.5926713,55.7168706],[37.5879384,55.7139531],[37.5883361,55.7130959],[37.585594,55.711091],[37.5821396,55.7109925],[37.5887529,55.7071218]]]}},{"type":"Feature","id":"d445273","properties":{"id":"d445273","name":"Левобережный","nameEn":"Levoberezhny","tier":"commons","price":2,"area":6.4,"okrug":"САО","okrugEn":"NAO","center":[37.46787,55.8672]},"geometry":{"type":"Polygon","coordinates":[[[37.4647226,55.8834596],[37.4483383,55.8827739],[37.4439641,55.8831423],[37.4424188,55.8841651],[37.4415353,55.883839],[37.4412022,55.8812258],[37.4364835,55.8795786],[37.4387242,55.8765343],[37.4426198,55.874411],[37.4514503,55.8702648],[37.4539735,55.870116],[37.4560826,55.8618848],[37.4588211,55.8576385],[37.4613263,55.851045],[37.4628942,55.8500763],[37.4644625,55.8471182],[37.4757433,55.8500854],[37.490924,55.8506529],[37.4968063,55.8525226],[37.4891516,55.859132],[37.4854466,55.8582196],[37.4772038,55.8653303],[37.4764525,55.8660554],[37.4791125,55.8667216],[37.4666217,55.879423],[37.4625313,55.8818586],[37.4624926,55.882721],[37.4647226,55.8834596]]]}},{"type":"Feature","id":"d445274","properties":{"id":"d445274","name":"Ховрино","nameEn":"Khovrino","tier":"commons","price":2,"area":5.2,"okrug":"САО","okrugEn":"NAO","center":[37.4894,55.86528]},"geometry":{"type":"Polygon","coordinates":[[[37.4698208,55.875607],[37.4791125,55.8667216],[37.4764525,55.8660554],[37.4813231,55.8615917],[37.4854466,55.8582196],[37.4891516,55.859132],[37.4968063,55.8525226],[37.5111923,55.8577385],[37.5054236,55.86239],[37.5100355,55.8643869],[37.5141946,55.8676902],[37.473697,55.8852992],[37.4624926,55.882721],[37.4698208,55.875607]]]}},{"type":"Feature","id":"d445275","properties":{"id":"d445275","name":"Западное Дегунино","nameEn":"Zapadnoye Degunino","tier":"commons","price":2,"area":7.6,"okrug":"САО","okrugEn":"NAO","center":[37.51996,55.87603]},"geometry":{"type":"Polygon","coordinates":[[[37.5141946,55.8676902],[37.5470392,55.85352],[37.5551837,55.8483563],[37.5605813,55.8496059],[37.5669075,55.8495149],[37.5602549,55.8573525],[37.5314357,55.8716267],[37.526547,55.8748715],[37.5116685,55.8892942],[37.5060167,55.886091],[37.4948148,55.8928065],[37.4928601,55.8909823],[37.4859353,55.8883988],[37.4835978,55.8906504],[37.4823164,55.8883802],[37.473697,55.8852992],[37.5141946,55.8676902]]]}},{"type":"Feature","id":"d445276","properties":{"id":"d445276","name":"Тимирязевский","nameEn":"Timiryazevsky","tier":"district","price":8,"area":10.5,"okrug":"САО","okrugEn":"NAO","center":[37.55635,55.82861]},"geometry":{"type":"Polygon","coordinates":[[[37.5555063,55.8484682],[37.5605395,55.8448416],[37.5389481,55.8366543],[37.5336446,55.8335088],[37.5317779,55.8313882],[37.5328284,55.825468],[37.531977,55.8218499],[37.5379479,55.8170434],[37.5407783,55.811897],[37.5538361,55.8053973],[37.5596863,55.8049872],[37.5847301,55.8086824],[37.5793077,55.8118077],[37.5778185,55.8166406],[37.5740221,55.8223928],[37.573685,55.8318439],[37.5781537,55.8367858],[37.5787395,55.8386144],[37.5737717,55.8484763],[37.5636786,55.8497305],[37.5555063,55.8484682]]]}},{"type":"Feature","id":"d445277","properties":{"id":"d445277","name":"Коптево","nameEn":"Koptevo","tier":"commons","price":2,"area":4.8,"okrug":"САО","okrugEn":"NAO","center":[37.52389,55.8287]},"geometry":{"type":"Polygon","coordinates":[[[37.5194971,55.8151739],[37.5325883,55.8154187],[37.541113,55.8120848],[37.5377981,55.8172098],[37.531977,55.8218499],[37.5328284,55.825468],[37.5317779,55.8313882],[37.5342016,55.8339622],[37.5389481,55.8366543],[37.5605395,55.8448416],[37.5551837,55.8483563],[37.5230715,55.8409823],[37.5223312,55.8417218],[37.5186961,55.8412747],[37.5147173,55.8379453],[37.5048366,55.8371674],[37.5087727,55.8331399],[37.5077793,55.8320938],[37.514829,55.8278346],[37.5143497,55.8274517],[37.5194402,55.8213038],[37.5178809,55.818626],[37.5216153,55.8175996],[37.5194971,55.8151739]]]}},{"type":"Feature","id":"d445278","properties":{"id":"d445278","name":"Дмитровский","nameEn":"Dmitrovsky","tier":"commons","price":2,"area":7,"okrug":"САО","okrugEn":"NAO","center":[37.52929,55.88578]},"geometry":{"type":"Polygon","coordinates":[[[37.5363206,55.9075674],[37.5244518,55.9049172],[37.4962542,55.8924795],[37.5060167,55.886091],[37.5116685,55.8892942],[37.5262565,55.8750967],[37.5296582,55.8728271],[37.5318269,55.8734195],[37.5308345,55.874506],[37.5341007,55.8753079],[37.5337411,55.8761145],[37.5462771,55.8783185],[37.5436837,55.8827811],[37.5430448,55.8872354],[37.5507976,55.88731],[37.55031,55.8917186],[37.5516028,55.8928671],[37.5519785,55.8977748],[37.5411696,55.9020266],[37.5363206,55.9075674]]]}},{"type":"Feature","id":"d445279","properties":{"id":"d445279","name":"Северное Тушино","nameEn":"North Tushino","tier":"commons","price":2,"area":9.2,"okrug":"СЗАО","okrugEn":"NWAO","center":[37.42234,55.85528]},"geometry":{"type":"Polygon","coordinates":[[[37.411428,55.8709576],[37.4050796,55.8672401],[37.3995994,55.8623023],[37.3961032,55.8573506],[37.3937518,55.8517851],[37.4033488,55.8504834],[37.4130327,55.8504249],[37.4214434,55.8487437],[37.4608472,55.853004],[37.4560826,55.8618848],[37.4539735,55.870116],[37.4514503,55.8702648],[37.4426198,55.874411],[37.4387242,55.8765343],[37.4364835,55.8795786],[37.411428,55.8709576]]]}},{"type":"Feature","id":"d445280","properties":{"id":"d445280","name":"Сокол","nameEn":"Sokol","tier":"district","price":8,"area":3.5,"okrug":"САО","okrugEn":"NAO","center":[37.50973,55.80211]},"geometry":{"type":"Polygon","coordinates":[[[37.4868576,55.815334],[37.4878979,55.8121021],[37.5025463,55.794866],[37.5038208,55.7910836],[37.5182853,55.7935013],[37.5188945,55.7943443],[37.5178925,55.7947612],[37.5204392,55.8037368],[37.5110095,55.8060827],[37.5194971,55.8151739],[37.4868576,55.815334]]]}},{"type":"Feature","id":"d445281","properties":{"id":"d445281","name":"Савёловский","nameEn":"Savyolovsky","tier":"district","price":8,"area":2.6,"okrug":"САО","okrugEn":"NAO","center":[37.56308,55.79923]},"geometry":{"type":"Polygon","coordinates":[[[37.5484606,55.806634],[37.5632916,55.7938825],[37.5691929,55.791552],[37.5839861,55.7922209],[37.5865301,55.7934376],[37.5843884,55.7950829],[37.5823396,55.8055211],[37.5806522,55.8082874],[37.5585365,55.8048939],[37.5538361,55.8053973],[37.5494647,55.8070814],[37.5484606,55.806634]]]}},{"type":"Feature","id":"d445282","properties":{"id":"d445282","name":"Отрадное","nameEn":"Otradnoye","tier":"commons","price":2,"area":10,"okrug":"СВАО","okrugEn":"NEAO","center":[37.61536,55.86443]},"geometry":{"type":"Polygon","coordinates":[[[37.6075412,55.8791079],[37.5862778,55.874814],[37.5852988,55.8700079],[37.5721838,55.8695333],[37.571371,55.8701818],[37.5746003,55.8621169],[37.5726431,55.8541581],[37.5737717,55.8484763],[37.612321,55.8464823],[37.6200915,55.8544045],[37.6203564,55.8592482],[37.6270714,55.8569896],[37.6329008,55.8573567],[37.6332179,55.8598928],[37.6351086,55.8613697],[37.6337472,55.8624531],[37.6346283,55.8633133],[37.6327079,55.8638547],[37.6331656,55.8643548],[37.6318744,55.8653066],[37.6303863,55.8652196],[37.6289908,55.868843],[37.616272,55.8750659],[37.616675,55.8769914],[37.6156272,55.8772062],[37.6156226,55.8782492],[37.6167266,55.8788916],[37.6169008,55.8803338],[37.6075412,55.8791079]]]}},{"type":"Feature","id":"d445285","properties":{"id":"d445285","name":"Восточное Дегунино","nameEn":"Vostochnoye Degunino","tier":"commons","price":2,"area":3.9,"okrug":"САО","okrugEn":"NAO","center":[37.56008,55.87363]},"geometry":{"type":"Polygon","coordinates":[[[37.571371,55.8701818],[37.5682909,55.8775903],[37.5663586,55.8914168],[37.5640581,55.8932732],[37.5519785,55.8977748],[37.5516028,55.8928671],[37.55031,55.8917186],[37.5507976,55.88731],[37.5430448,55.8872354],[37.5436837,55.8827811],[37.5466566,55.8773996],[37.5576096,55.878997],[37.5581859,55.87419],[37.5666391,55.8635053],[37.5639699,55.8629806],[37.5646456,55.8615733],[37.563187,55.8616195],[37.5638855,55.8594224],[37.5678745,55.859342],[37.5667709,55.8544213],[37.5727074,55.8547347],[37.5743515,55.8592177],[37.5746003,55.8621169],[37.571371,55.8701818]]]}},{"type":"Feature","id":"d445297","properties":{"id":"d445297","name":"Головинский","nameEn":"Golovinsky","tier":"commons","price":2,"area":8.8,"okrug":"САО","okrugEn":"NAO","center":[37.50268,55.84947]},"geometry":{"type":"Polygon","coordinates":[[[37.4725865,55.8403538],[37.4798671,55.841335],[37.4813734,55.8393409],[37.4936103,55.8393585],[37.5045338,55.8371737],[37.5145676,55.8379219],[37.5186961,55.8412747],[37.5223312,55.8417218],[37.5230715,55.8409823],[37.5551837,55.8483563],[37.5470392,55.85352],[37.5141946,55.8676902],[37.5100355,55.8643869],[37.5054236,55.86239],[37.5111923,55.8577385],[37.491954,55.8508328],[37.4764327,55.8501996],[37.4644625,55.8471182],[37.4722678,55.8417749],[37.4725865,55.8403538]]]}},{"type":"Feature","id":"d445298","properties":{"id":"d445298","name":"Беговой","nameEn":"Begovoy","tier":"district","price":8,"area":4,"okrug":"САО","okrugEn":"NAO","center":[37.56557,55.78165]},"geometry":{"type":"Polygon","coordinates":[[[37.5494558,55.7925318],[37.5485565,55.7918955],[37.5500727,55.7912114],[37.5408733,55.7849648],[37.5419935,55.7834599],[37.5440863,55.7835797],[37.5453748,55.7809121],[37.5471812,55.7797111],[37.5550297,55.7761208],[37.5516903,55.774133],[37.5519166,55.7734083],[37.5759936,55.775608],[37.581307,55.7775371],[37.5851959,55.7804825],[37.5886333,55.7920566],[37.5865301,55.7934376],[37.5839861,55.7922209],[37.5744959,55.7916519],[37.5657422,55.7854818],[37.5494558,55.7925318]]]}},{"type":"Feature","id":"d445299","properties":{"id":"d445299","name":"Хорошёвский","nameEn":"Khoroshyovsky","tier":"district","price":8,"area":8.5,"okrug":"САО","okrugEn":"NAO","center":[37.52918,55.78182]},"geometry":{"type":"Polygon","coordinates":[[[37.5506383,55.7775621],[37.5453748,55.7809121],[37.5440863,55.7835797],[37.5419935,55.7834599],[37.5408733,55.7849648],[37.5500727,55.7912114],[37.5485565,55.7918955],[37.5494558,55.7925318],[37.5305987,55.8008779],[37.5204392,55.8037368],[37.5178925,55.7947612],[37.5188944,55.7944163],[37.5182853,55.7935013],[37.5038208,55.7910836],[37.5074274,55.777151],[37.5242852,55.7598459],[37.532202,55.7634162],[37.5347649,55.7661935],[37.536061,55.7661039],[37.5366332,55.7690651],[37.5389633,55.7711286],[37.544434,55.772989],[37.5519166,55.7734083],[37.5516903,55.774133],[37.5550297,55.7761208],[37.5506383,55.7775621]]]}},{"type":"Feature","id":"d446078","properties":{"id":"d446078","name":"Войковский","nameEn":"Voykovsky","tier":"commons","price":2,"area":5.3,"okrug":"САО","okrugEn":"NAO","center":[37.50073,55.82771]},"geometry":{"type":"Polygon","coordinates":[[[37.5194971,55.8151739],[37.5216153,55.8175996],[37.5178809,55.818626],[37.5194402,55.8213038],[37.5143497,55.8274517],[37.514829,55.8278346],[37.5077793,55.8320938],[37.5087727,55.8331399],[37.5048366,55.8371674],[37.4936103,55.8393585],[37.4813734,55.8393409],[37.4798671,55.841335],[37.4725865,55.8403538],[37.4720609,55.8393886],[37.4721785,55.8371823],[37.478983,55.8315541],[37.4791227,55.830748],[37.4744188,55.8298286],[37.4781004,55.8266713],[37.4910751,55.8272718],[37.4933657,55.8244783],[37.488042,55.8206297],[37.4868036,55.8179345],[37.4868576,55.815334],[37.5194971,55.8151739]]]}},{"type":"Feature","id":"d446079","properties":{"id":"d446079","name":"Аэропорт","nameEn":"Aeroport","tier":"district","price":8,"area":4.6,"okrug":"САО","okrugEn":"NAO","center":[37.55206,55.79981]},"geometry":{"type":"Polygon","coordinates":[[[37.5696293,55.7914098],[37.5632916,55.7938825],[37.5484606,55.806634],[37.5494647,55.8070814],[37.5339666,55.8151446],[37.5194971,55.8151739],[37.5110095,55.8060827],[37.5318788,55.8004554],[37.5657422,55.7854818],[37.5744959,55.7916519],[37.5696293,55.7914098]]]}},{"type":"Feature","id":"d446080","properties":{"id":"d446080","name":"Южное Тушино","nameEn":"Yuzhnoye Tushino","tier":"commons","price":2,"area":7.9,"okrug":"СЗАО","okrugEn":"NWAO","center":[37.42076,55.84447]},"geometry":{"type":"Polygon","coordinates":[[[37.3937518,55.8517851],[37.3918335,55.8465012],[37.3958649,55.8383457],[37.3958625,55.8336357],[37.4054241,55.8317418],[37.4081822,55.8333403],[37.410593,55.8327675],[37.415366,55.8334904],[37.4156561,55.8343956],[37.4146655,55.8352267],[37.4166131,55.8364885],[37.4246109,55.8375077],[37.4265569,55.8367259],[37.4281979,55.834474],[37.4362988,55.8365089],[37.4594771,55.8350947],[37.4654696,55.836954],[37.4703495,55.8427259],[37.4639345,55.8476856],[37.4608472,55.853004],[37.4214434,55.8487437],[37.4130327,55.8504249],[37.4033488,55.8504834],[37.3937518,55.8517851]]]}},{"type":"Feature","id":"d446081","properties":{"id":"d446081","name":"Покровское-Стрешнево","nameEn":"Pokrovskoye-Streshnevo","tier":"commons","price":2,"area":13,"okrug":"СЗАО","okrugEn":"NWAO","center":[37.44855,55.82602]},"geometry":{"type":"Polygon","coordinates":[[[37.4906454,55.8271415],[37.4781004,55.8266713],[37.4744188,55.8298286],[37.4791227,55.830748],[37.478983,55.8315541],[37.4716778,55.8377855],[37.4725123,55.840983],[37.4703495,55.8427259],[37.4654696,55.836954],[37.4594771,55.8350947],[37.4362988,55.8365089],[37.4281979,55.834474],[37.4261706,55.8369862],[37.4234651,55.8374265],[37.415912,55.8362457],[37.4146655,55.8352267],[37.4156561,55.8343956],[37.415366,55.8334904],[37.410593,55.8327675],[37.4081822,55.8333403],[37.4054241,55.8317418],[37.3958625,55.8336357],[37.3944388,55.829101],[37.4071223,55.8255725],[37.4144609,55.8191356],[37.4141033,55.8163943],[37.4148442,55.8150481],[37.4198682,55.8115161],[37.4301679,55.8088392],[37.44124,55.8087428],[37.4464328,55.8065481],[37.446496,55.8100754],[37.4489087,55.8140135],[37.4528177,55.8116766],[37.4574808,55.8110744],[37.4678877,55.8116079],[37.4797029,55.8151045],[37.4868576,55.815334],[37.4868036,55.8179345],[37.488042,55.8206297],[37.4933657,55.8244783],[37.4906454,55.8271415]]]}},{"type":"Feature","id":"d446082","properties":{"id":"d446082","name":"Бескудниковский","nameEn":"Beskudnikovsky","tier":"commons","price":2,"area":3.3,"okrug":"САО","okrugEn":"NAO","center":[37.5528,55.86755]},"geometry":{"type":"Polygon","coordinates":[[[37.5737717,55.8484763],[37.5727074,55.8547347],[37.5667709,55.8544213],[37.5678745,55.859342],[37.5638855,55.8594224],[37.563187,55.8616195],[37.5646456,55.8615733],[37.5639699,55.8629806],[37.5666391,55.8635053],[37.5581859,55.87419],[37.5576096,55.878997],[37.5466566,55.8773996],[37.5462771,55.8783185],[37.5337411,55.8761145],[37.5341007,55.8753079],[37.5308345,55.874506],[37.5318269,55.8734195],[37.5296582,55.8728271],[37.5602549,55.8573525],[37.5669075,55.8495149],[37.5737717,55.8484763]]]}},{"type":"Feature","id":"d446083","properties":{"id":"d446083","name":"Алтуфьевский","nameEn":"Altufyevsky","tier":"commons","price":2,"area":3.3,"okrug":"СВАО","okrugEn":"NEAO","center":[37.58889,55.88031]},"geometry":{"type":"Polygon","coordinates":[[[37.6075412,55.8791079],[37.59961,55.8849703],[37.5948136,55.8869043],[37.5674047,55.8873023],[37.5682909,55.8775903],[37.5721838,55.8695333],[37.5852988,55.8700079],[37.5862778,55.874814],[37.6075412,55.8791079]]]}},{"type":"Feature","id":"d446084","properties":{"id":"d446084","name":"Лианозово","nameEn":"Lianozovo","tier":"commons","price":2,"area":5.6,"okrug":"СВАО","okrugEn":"NEAO","center":[37.56957,55.9023]},"geometry":{"type":"Polygon","coordinates":[[[37.5519785,55.8977748],[37.5647478,55.892842],[37.5667552,55.8908373],[37.5674047,55.8873023],[37.5866695,55.8869508],[37.587266,55.9076062],[37.5909767,55.9136241],[37.587256,55.9104216],[37.5741491,55.9112732],[37.5368342,55.9071173],[37.5383126,55.9044282],[37.5411696,55.9020266],[37.5519785,55.8977748]]]}},{"type":"Feature","id":"d446085","properties":{"id":"d446085","name":"Бибирево","nameEn":"Bibirevo","tier":"commons","price":2,"area":6.4,"okrug":"СВАО","okrugEn":"NEAO","center":[37.61121,55.88963]},"geometry":{"type":"Polygon","coordinates":[[[37.6069708,55.9051729],[37.5931529,55.9089479],[37.5905033,55.9112916],[37.5909767,55.9136241],[37.587266,55.9076062],[37.5866771,55.887208],[37.5969283,55.886354],[37.6075412,55.8791079],[37.6169008,55.8803338],[37.6142216,55.883035],[37.6187372,55.885711],[37.6202844,55.8857211],[37.6231749,55.887779],[37.6229233,55.8888487],[37.6440665,55.8976996],[37.6213487,55.9015146],[37.6069708,55.9051729]]]}},{"type":"Feature","id":"d446086","properties":{"id":"d446086","name":"Северное Медведково","nameEn":"Severnoye Medvedkovo","tier":"commons","price":2,"area":5.7,"okrug":"СВАО","okrugEn":"NEAO","center":[37.65542,55.88597]},"geometry":{"type":"Polygon","coordinates":[[[37.661776,55.8817177],[37.6716995,55.8820887],[37.673728,55.8828729],[37.6729034,55.8835444],[37.6739421,55.8838541],[37.6782185,55.8832515],[37.6811936,55.8857423],[37.6819036,55.887967],[37.6846787,55.8910976],[37.6852585,55.8951038],[37.6769548,55.8954621],[37.6726695,55.8978367],[37.6691834,55.8956784],[37.6440665,55.8976996],[37.6231791,55.888976],[37.6231749,55.887779],[37.6196477,55.885611],[37.6417309,55.8841313],[37.6363536,55.8784143],[37.6463001,55.877343],[37.65733,55.8766105],[37.6574787,55.8798187],[37.661776,55.8817177]]]}},{"type":"Feature","id":"d446087","properties":{"id":"d446087","name":"Южное Медведково","nameEn":"Yuzhnoye Medvedkovo","tier":"commons","price":2,"area":3.9,"okrug":"СВАО","okrugEn":"NEAO","center":[37.63084,55.87391]},"geometry":{"type":"Polygon","coordinates":[[[37.6169008,55.8803338],[37.6167266,55.8788916],[37.6156226,55.8782492],[37.6156272,55.8772062],[37.616675,55.8769914],[37.616272,55.8750659],[37.6291471,55.8687327],[37.6303863,55.8652196],[37.6318744,55.8653066],[37.6331656,55.8643548],[37.6327079,55.8638547],[37.6346283,55.8633133],[37.6337472,55.8624531],[37.6351086,55.8613697],[37.6404884,55.8651667],[37.6488306,55.8666706],[37.648474,55.8677719],[37.6512062,55.8700541],[37.6560797,55.8713578],[37.6586625,55.8733271],[37.65733,55.8766105],[37.6363536,55.8784143],[37.6417309,55.8841313],[37.6187372,55.885711],[37.6142216,55.883035],[37.6169008,55.8803338]]]}},{"type":"Feature","id":"d446111","properties":{"id":"d446111","name":"Фили-Давыдково","nameEn":"Fili-Davydkovo","tier":"commons","price":2,"area":7,"okrug":"ЗАО","okrugEn":"WAO","center":[37.47246,55.7183]},"geometry":{"type":"Polygon","coordinates":[[[37.4985676,55.7228538],[37.4801615,55.7430534],[37.4542991,55.735917],[37.4527229,55.7372394],[37.4449168,55.7348261],[37.4379546,55.7372586],[37.4452009,55.7323871],[37.4546998,55.7099588],[37.4618543,55.7111672],[37.4640602,55.7103526],[37.4655082,55.7115738],[37.4670171,55.7114232],[37.4678703,55.7126089],[37.4636944,55.7138315],[37.4668179,55.7156112],[37.4685769,55.7148195],[37.4680216,55.7136655],[37.4714369,55.7138166],[37.4706983,55.7148058],[37.471539,55.7154788],[37.4705888,55.715841],[37.4720821,55.7169883],[37.4691966,55.7190026],[37.4705072,55.7193792],[37.4721991,55.7184159],[37.4732445,55.7199212],[37.4767602,55.721529],[37.4833852,55.7210734],[37.4885087,55.7183456],[37.4924487,55.7180317],[37.4931321,55.7188817],[37.4926346,55.7201073],[37.4949329,55.720101],[37.4985676,55.7228538]]]}},{"type":"Feature","id":"d446112","properties":{"id":"d446112","name":"Филёвский Парк","nameEn":"Filyovsky Park","tier":"district","price":8,"area":9.6,"okrug":"СЗАО","okrugEn":"NWAO","center":[37.47083,55.74813]},"geometry":{"type":"Polygon","coordinates":[[[37.5224216,55.7472846],[37.516299,55.7568334],[37.5145394,55.7580891],[37.4981458,55.7655019],[37.4871806,55.7681941],[37.4800361,55.7677128],[37.4780555,55.7666923],[37.476388,55.7645104],[37.476731,55.7559641],[37.4751432,55.749878],[37.4710233,55.7461099],[37.4617965,55.7418583],[37.4553163,55.7406021],[37.4465186,55.7418583],[37.4373777,55.7464239],[37.4363477,55.7478732],[37.4369216,55.7492638],[37.4330442,55.7500589],[37.4300708,55.7496577],[37.426586,55.7477294],[37.4314399,55.7457838],[37.4308635,55.7453218],[37.4332033,55.7426361],[37.4394908,55.7397079],[37.4396575,55.7384021],[37.4379546,55.7372586],[37.4449168,55.7348261],[37.4506336,55.7369351],[37.4527229,55.7372394],[37.4542991,55.735917],[37.4603124,55.7372605],[37.4801615,55.7430534],[37.4892942,55.7330146],[37.5058686,55.7369085],[37.5156954,55.7445398],[37.5224216,55.7472846]]]}},{"type":"Feature","id":"d446114","properties":{"id":"d446114","name":"Дорогомилово","nameEn":"Dorogomilovo","tier":"district","price":8,"area":7.8,"okrug":"ЗАО","okrugEn":"WAO","center":[37.5329,55.7389]},"geometry":{"type":"Polygon","coordinates":[[[37.5727693,55.7434061],[37.5744493,55.7463273],[37.5740201,55.7503369],[37.5708015,55.7527279],[37.5640208,55.7535974],[37.5545352,55.7514364],[37.5435502,55.7465205],[37.5364877,55.7446449],[37.527972,55.7446122],[37.5224216,55.7472846],[37.5156954,55.7445398],[37.5058686,55.7369085],[37.4892942,55.7330146],[37.4985676,55.7228538],[37.518486,55.7314259],[37.5313197,55.7351321],[37.5384748,55.7362112],[37.5477856,55.7280681],[37.5636326,55.7350954],[37.5683267,55.7385525],[37.5727693,55.7434061]]]}},{"type":"Feature","id":"d446115","properties":{"id":"d446115","name":"Раменки","nameEn":"Ramenki","tier":"landmark","price":0,"area":18.7,"okrug":"ЗАО","okrugEn":"WAO","center":[37.5025,55.69635],"hook":"МГУ и Воробьёвы горы","hookEn":"MSU & Sparrow Hills"},"geometry":{"type":"Polygon","coordinates":[[[37.4941143,55.6867022],[37.4987234,55.6881743],[37.5059295,55.6878218],[37.5072893,55.6866309],[37.5072464,55.6846229],[37.509375,55.6828035],[37.5082893,55.6811244],[37.5101376,55.6788427],[37.5365712,55.6935632],[37.5592321,55.7102802],[37.5485159,55.7122628],[37.5433307,55.7156172],[37.5410812,55.7201251],[37.5418635,55.7240396],[37.5449026,55.7270557],[37.5477856,55.7280681],[37.5384748,55.7362112],[37.5313197,55.7351321],[37.518486,55.7314259],[37.4964921,55.721695],[37.4930927,55.7178328],[37.4929288,55.7134944],[37.4905934,55.7092836],[37.4695454,55.6981992],[37.4663185,55.6945259],[37.478186,55.6854037],[37.4813805,55.6811258],[37.484687,55.6830932],[37.4862705,55.6821907],[37.4899018,55.6838222],[37.4870018,55.6873662],[37.4886718,55.6886149],[37.4941143,55.6867022]]]}},{"type":"Feature","id":"d446116","properties":{"id":"d446116","name":"Солнцево","nameEn":"Solntsevo","tier":"commons","price":2,"area":18.5,"okrug":"ЗАО","okrugEn":"WAO","center":[37.39657,55.64747]},"geometry":{"type":"Polygon","coordinates":[[[37.3771197,55.6360633],[37.3809515,55.6326871],[37.3886019,55.6316954],[37.3876952,55.6284972],[37.3939173,55.6273686],[37.396352,55.6286026],[37.4044301,55.6284557],[37.4086726,55.6262891],[37.4184916,55.6262336],[37.4485741,55.6342436],[37.4558296,55.6374475],[37.4568478,55.6401724],[37.4354189,55.6586843],[37.417481,55.6807762],[37.410585,55.6780483],[37.4112905,55.6774909],[37.4059717,55.6744578],[37.4040325,55.6710433],[37.4130736,55.6674098],[37.4154573,55.6647647],[37.404661,55.6619362],[37.3941332,55.6609367],[37.3890614,55.6619263],[37.3861581,55.6645757],[37.3805794,55.6645089],[37.3780033,55.6594828],[37.3697653,55.6595194],[37.3678536,55.6532045],[37.3707423,55.6510625],[37.3769428,55.6506588],[37.3770008,55.6491767],[37.3743222,55.6474378],[37.3748812,55.6470678],[37.3740057,55.6449125],[37.3729436,55.6447348],[37.3758329,55.6419389],[37.3744185,55.6409303],[37.3738581,55.6389749],[37.3755404,55.6378413],[37.3753087,55.6368046],[37.3771197,55.6360633]]]}},{"type":"Feature","id":"d446271","properties":{"id":"d446271","name":"Ярославский","nameEn":"Yaroslavsky","tier":"commons","price":2,"area":8.3,"okrug":"СВАО","okrugEn":"NEAO","center":[37.7012,55.85897]},"geometry":{"type":"Polygon","coordinates":[[[37.6753955,55.8385435],[37.6780064,55.839942],[37.6783464,55.8418159],[37.6903183,55.8480056],[37.6922264,55.8503067],[37.6899704,55.8512231],[37.6922843,55.8529088],[37.6867679,55.8545129],[37.6894096,55.8559566],[37.6931332,55.8557966],[37.6924303,55.8553303],[37.6947455,55.8533753],[37.6937646,55.8520726],[37.6968229,55.8481609],[37.7035867,55.8487733],[37.7140751,55.8469149],[37.7201692,55.8505716],[37.719405,55.8514226],[37.7216393,55.8529241],[37.7180173,55.8606073],[37.7094382,55.8609111],[37.7091864,55.8629558],[37.7068126,55.8644903],[37.7158133,55.8701542],[37.719672,55.8736992],[37.7242557,55.873008],[37.7318197,55.8749452],[37.7310102,55.8768929],[37.7347837,55.8784053],[37.7294495,55.8815687],[37.7296648,55.8830907],[37.7320995,55.8853158],[37.7243624,55.8838019],[37.7197072,55.8859102],[37.6751947,55.8569507],[37.6725244,55.8535109],[37.6714545,55.8468087],[37.663447,55.8408247],[37.6707205,55.838635],[37.6753955,55.8385435]]]}},{"type":"Feature","id":"d446272","properties":{"id":"d446272","name":"Ростокино","nameEn":"Rostokino","tier":"district","price":8,"area":3.5,"okrug":"СВАО","okrugEn":"NEAO","center":[37.64983,55.83368]},"geometry":{"type":"Polygon","coordinates":[[[37.6359786,55.8380086],[37.6320152,55.8382401],[37.6320152,55.8359499],[37.6342293,55.835324],[37.6342529,55.8338081],[37.6366684,55.8338244],[37.6496267,55.8289427],[37.6542744,55.8332803],[37.655154,55.832127],[37.6534869,55.8301181],[37.654399,55.8286426],[37.6653016,55.8265852],[37.667374,55.8249374],[37.6706941,55.8243936],[37.6715749,55.8290255],[37.6702104,55.8387396],[37.650557,55.8446206],[37.6358304,55.8457449],[37.6366978,55.8378155],[37.6359786,55.8380086]]]}},{"type":"Feature","id":"d455184","properties":{"id":"d455184","name":"Текстильщики","nameEn":"Tekstilshchiki","tier":"district","price":8,"area":4.8,"okrug":"ЮВАО","okrugEn":"SEAO","center":[37.74385,55.7064]},"geometry":{"type":"Polygon","coordinates":[[[37.7536293,55.6890783],[37.7559871,55.691603],[37.7452325,55.7079288],[37.7478168,55.7077911],[37.7475983,55.7099278],[37.7490007,55.7103029],[37.7423946,55.7216238],[37.7394989,55.7242326],[37.7356579,55.7250641],[37.7171026,55.7217364],[37.7288973,55.7112435],[37.7304911,55.6988407],[37.7316163,55.6939762],[37.7330151,55.6919342],[37.7536293,55.6890783]]]}},{"type":"Feature","id":"d455203","properties":{"id":"d455203","name":"Люблино","nameEn":"Lyublino","tier":"commons","price":2,"area":17.8,"okrug":"ЮВАО","okrugEn":"SEAO","center":[37.77068,55.67026]},"geometry":{"type":"Polygon","coordinates":[[[37.7639101,55.6688607],[37.7760239,55.6668776],[37.7822627,55.6636194],[37.7888756,55.6582973],[37.7941161,55.6575734],[37.8415991,55.6572849],[37.840133,55.6582724],[37.8395998,55.6640071],[37.8345286,55.67789],[37.830383,55.6772759],[37.8250236,55.6795105],[37.8219979,55.6782862],[37.8180946,55.6803695],[37.8100267,55.6759049],[37.8119607,55.6745584],[37.8098178,55.6757765],[37.8079326,55.6746361],[37.8044943,55.6774196],[37.8053178,55.6802812],[37.7983293,55.6801875],[37.7925022,55.6831211],[37.7888801,55.6812958],[37.7850256,55.683413],[37.7641678,55.6884381],[37.7626337,55.6881278],[37.7611915,55.6887409],[37.760854,55.6910256],[37.7591187,55.6902121],[37.7556934,55.6907633],[37.754249,55.6889585],[37.7330151,55.6919342],[37.734893,55.6874275],[37.7266008,55.671302],[37.7221103,55.6651326],[37.7131287,55.65852],[37.7154677,55.6582403],[37.7203238,55.660317],[37.7273028,55.6564752],[37.7502351,55.6659897],[37.7639101,55.6688607]]]}},{"type":"Feature","id":"d455208","properties":{"id":"d455208","name":"Капотня","nameEn":"Kapotnya","tier":"commons","price":2,"area":8.1,"okrug":"ЮВАО","okrugEn":"SEAO","center":[37.81865,55.64611]},"geometry":{"type":"Polygon","coordinates":[[[37.793561,55.6229597],[37.8181167,55.6390925],[37.8235106,55.6396749],[37.8241147,55.6405853],[37.8225401,55.6415104],[37.8348972,55.6500593],[37.8390998,55.6554662],[37.8411397,55.6551916],[37.8413901,55.6567029],[37.7941161,55.6575734],[37.7879633,55.6584981],[37.783447,55.6485454],[37.7853353,55.6473346],[37.7855069,55.6451066],[37.7838332,55.6425879],[37.7850349,55.6332623],[37.7897556,55.6257517],[37.793561,55.6229597]]]}},{"type":"Feature","id":"d455222","properties":{"id":"d455222","name":"Марьино","nameEn":"Maryino","tier":"commons","price":2,"area":11.7,"okrug":"ЮВАО","okrugEn":"SEAO","center":[37.7414,55.65969]},"geometry":{"type":"Polygon","coordinates":[[[37.7639101,55.6688607],[37.7502351,55.6659897],[37.7273028,55.6564752],[37.7203238,55.660317],[37.7154677,55.6582403],[37.7131287,55.65852],[37.6929061,55.6438288],[37.7132784,55.6394575],[37.7295024,55.6408925],[37.7453811,55.6398994],[37.7797992,55.6487391],[37.783447,55.6485454],[37.7879633,55.6584981],[37.7822627,55.6636194],[37.7760239,55.6668776],[37.7639101,55.6688607]]]}},{"type":"Feature","id":"d455451","properties":{"id":"d455451","name":"Печатники","nameEn":"Pechatniki","tier":"district","price":8,"area":18.4,"okrug":"ЮАО","okrugEn":"SAO","center":[37.70245,55.69196]},"geometry":{"type":"Polygon","coordinates":[[[37.6908497,55.7055176],[37.6842701,55.6974223],[37.7075727,55.6932705],[37.7121217,55.6884568],[37.71195,55.6813198],[37.7026565,55.6765772],[37.6750428,55.6676469],[37.6732404,55.6651055],[37.6715218,55.6557793],[37.6716505,55.6543508],[37.6745688,55.65176],[37.6929061,55.6438288],[37.7221103,55.6651326],[37.7312646,55.6795086],[37.734906,55.6877743],[37.7313125,55.6951225],[37.7288973,55.7112435],[37.7150397,55.7235362],[37.7022453,55.7197385],[37.7000288,55.7207445],[37.6790775,55.7147847],[37.6862771,55.7061783],[37.6905678,55.7063589],[37.6908497,55.7055176]]]}},{"type":"Feature","id":"d455460","properties":{"id":"d455460","name":"Нагатинский Затон","nameEn":"Nagatinsky Zaton","tier":"commons","price":2,"area":9.5,"okrug":"ЮАО","okrugEn":"SAO","center":[37.67187,55.66913]},"geometry":{"type":"Polygon","coordinates":[[[37.6874025,55.6711564],[37.6907475,55.6732397],[37.7047617,55.6773626],[37.71195,55.6813198],[37.7121217,55.6884568],[37.7075727,55.6932705],[37.6744855,55.6985085],[37.6709548,55.7005007],[37.6672891,55.7007415],[37.6622001,55.6704195],[37.654416,55.659823],[37.6537449,55.6544767],[37.6605859,55.6501701],[37.6644751,55.6533749],[37.6716027,55.6563638],[37.6732404,55.6651055],[37.6750428,55.6676469],[37.6824243,55.6706239],[37.6874025,55.6711564]]]}},{"type":"Feature","id":"d455528","properties":{"id":"d455528","name":"Москворечье-Сабурово","nameEn":"Moskvorechye-Saburovo","tier":"commons","price":2,"area":10.1,"okrug":"ЮАО","okrugEn":"SAO","center":[37.66123,55.64075]},"geometry":{"type":"Polygon","coordinates":[[[37.6920102,55.627976],[37.7095002,55.6309428],[37.7290994,55.6307643],[37.7295695,55.6321151],[37.7277089,55.6334171],[37.7271206,55.6352984],[37.7295024,55.6408925],[37.7132784,55.6394575],[37.6944815,55.6432843],[37.6745688,55.65176],[37.6716505,55.6543508],[37.6716027,55.6563638],[37.6644751,55.6533749],[37.6605859,55.6501701],[37.6417145,55.6583917],[37.63704,55.6549614],[37.6342589,55.65653],[37.6320434,55.6558577],[37.6224611,55.6575337],[37.622246,55.6510431],[37.6250668,55.6399782],[37.6325215,55.6396716],[37.6417705,55.6408549],[37.6412561,55.6385958],[37.687742,55.6366945],[37.6904288,55.6340975],[37.6893433,55.6334644],[37.6897805,55.6284648],[37.6920102,55.627976]]]}},{"type":"Feature","id":"d455539","properties":{"id":"d455539","name":"Орехово-Борисово Северное","nameEn":"Orekhovo-Borisovo Severnoye","tier":"commons","price":2,"area":7.4,"okrug":"ЮАО","okrugEn":"SAO","center":[37.69903,55.61734]},"geometry":{"type":"Polygon","coordinates":[[[37.7161248,55.6107205],[37.7303698,55.6130151],[37.7278346,55.6189584],[37.727839,55.6242989],[37.7287641,55.6257252],[37.7274859,55.6259615],[37.7273466,55.6269613],[37.729663,55.6305066],[37.7095002,55.6309428],[37.6904024,55.6280519],[37.6893416,55.6333564],[37.6904288,55.6340975],[37.6870691,55.6366408],[37.6846634,55.6306681],[37.6712853,55.6200284],[37.6730482,55.619692],[37.6759672,55.621924],[37.6801071,55.6216764],[37.6777359,55.6178977],[37.6778832,55.6142494],[37.680531,55.610099],[37.6874303,55.6074423],[37.6918851,55.6069887],[37.6935481,55.6057524],[37.697501,55.6064937],[37.6972348,55.6072993],[37.6991371,55.6079533],[37.7161248,55.6107205]]]}},{"type":"Feature","id":"d456807","properties":{"id":"d456807","name":"Орехово-Борисово Южное","nameEn":"Orekhovo-Borisovo Yuzhnoye","tier":"commons","price":2,"area":7.1,"okrug":"ЮАО","okrugEn":"SAO","center":[37.7197,55.60394]},"geometry":{"type":"Polygon","coordinates":[[[37.7750479,55.619144],[37.7751049,55.6181622],[37.7727326,55.6162861],[37.7542898,55.6117398],[37.7313025,55.6112028],[37.7303698,55.6130151],[37.6991371,55.6079533],[37.6954673,55.6057166],[37.6913973,55.6068514],[37.6921419,55.6053345],[37.6956907,55.6041195],[37.6963559,55.6028263],[37.7001391,55.6021922],[37.7025746,55.5991531],[37.7096253,55.5982408],[37.7170434,55.5957187],[37.7245037,55.5893131],[37.7269732,55.5900823],[37.7321735,55.5887973],[37.7328042,55.5891672],[37.7320986,55.5909144],[37.733529,55.5929779],[37.7538314,55.6015974],[37.7800723,55.6158902],[37.7850922,55.6169801],[37.7800626,55.6188287],[37.7750479,55.619144]]]}},{"type":"Feature","id":"d531264","properties":{"id":"d531264","name":"Зябликово","nameEn":"Zyablikovo","tier":"commons","price":2,"area":4.5,"okrug":"ЮАО","okrugEn":"SAO","center":[37.74118,55.62389]},"geometry":{"type":"Polygon","coordinates":[[[37.7739282,55.6191547],[37.76944,55.619537],[37.7600731,55.6231677],[37.7544885,55.6265046],[37.7513923,55.6309637],[37.7290994,55.6307643],[37.7295929,55.6295244],[37.7273466,55.6269613],[37.7274859,55.6259615],[37.7287641,55.6257252],[37.727839,55.6242989],[37.7280849,55.617933],[37.7313025,55.6112028],[37.7542898,55.6117398],[37.7727326,55.6162861],[37.7751049,55.6181622],[37.7739282,55.6191547]]]}},{"type":"Feature","id":"d531287","properties":{"id":"d531287","name":"Братеево","nameEn":"Brateyevo","tier":"commons","price":2,"area":7.5,"okrug":"ЮАО","okrugEn":"SAO","center":[37.75745,55.62715]},"geometry":{"type":"Polygon","coordinates":[[[37.7282384,55.6367798],[37.7272558,55.6342039],[37.7292758,55.6326732],[37.7290994,55.6307643],[37.7513923,55.6309637],[37.7530544,55.6279089],[37.7566831,55.6250364],[37.769989,55.6194],[37.7797139,55.6188993],[37.7869299,55.6166549],[37.7837364,55.618106],[37.793561,55.6229597],[37.7897556,55.6257517],[37.7850349,55.6332623],[37.7838332,55.6425879],[37.7855069,55.6451066],[37.7853353,55.6473346],[37.783447,55.6485454],[37.7797992,55.6487391],[37.7453811,55.6398994],[37.7295024,55.6408925],[37.7282384,55.6367798]]]}},{"type":"Feature","id":"d535655","properties":{"id":"d535655","name":"Нагатино-Садовники","nameEn":"Nagatino-Sadovniki","tier":"commons","price":2,"area":7.7,"okrug":"ЮАО","okrugEn":"SAO","center":[37.64222,55.66436]},"geometry":{"type":"Polygon","coordinates":[[[37.6223922,55.688547],[37.6271573,55.6726145],[37.6228581,55.666844],[37.6224611,55.6575337],[37.6320434,55.6558577],[37.6342589,55.65653],[37.63704,55.6549614],[37.6417145,55.6583917],[37.6594373,55.6506381],[37.6545943,55.6534215],[37.6534884,55.6561824],[37.654416,55.659823],[37.661869,55.6693459],[37.6652416,55.6862244],[37.6361186,55.6846102],[37.6315696,55.6866666],[37.6288682,55.6917492],[37.6218603,55.6907301],[37.6223922,55.688547]]]}},{"type":"Feature","id":"d535662","properties":{"id":"d535662","name":"Нагорный","nameEn":"Nagorny","tier":"district","price":8,"area":5.3,"okrug":"ЮАО","okrugEn":"SAO","center":[37.6115,55.6745]},"geometry":{"type":"Polygon","coordinates":[[[37.60805,55.6589019],[37.605395,55.6564188],[37.6056701,55.6413716],[37.6197743,55.6405441],[37.6197417,55.642191],[37.6244246,55.6425363],[37.6221414,55.6518394],[37.6228581,55.666844],[37.6271573,55.6726145],[37.6218603,55.6907301],[37.6125916,55.6891048],[37.6035132,55.6903468],[37.6051742,55.6890097],[37.6049491,55.6860546],[37.605713,55.6849572],[37.6086084,55.6838867],[37.6137024,55.6844758],[37.614921,55.6809259],[37.6117107,55.6786056],[37.6112922,55.6772175],[37.6089553,55.6763047],[37.6056311,55.6723005],[37.6066929,55.6711721],[37.6057896,55.6705589],[37.6059069,55.6690658],[37.6116452,55.66608],[37.6076464,55.6640831],[37.6135718,55.6634793],[37.60805,55.6589019]]]}},{"type":"Feature","id":"d535680","properties":{"id":"d535680","name":"Чертаново Северное","nameEn":"Chertanovo Severnoye","tier":"commons","price":2,"area":6.2,"okrug":"ЮАО","okrugEn":"SAO","center":[37.59412,55.63111]},"geometry":{"type":"Polygon","coordinates":[[[37.6308675,55.6218782],[37.6285641,55.6262526],[37.6244246,55.6425363],[37.6197417,55.642191],[37.6197743,55.6405441],[37.5916832,55.6421886],[37.5803884,55.6453262],[37.5793622,55.6436152],[37.5792904,55.6428012],[37.5820011,55.6412222],[37.5812618,55.6408951],[37.5822546,55.638467],[37.5798446,55.6360226],[37.5805944,55.635911],[37.577406,55.6343603],[37.5772657,55.6326769],[37.5858587,55.6311686],[37.5841652,55.6286932],[37.5850272,55.628723],[37.5840882,55.627995],[37.5843505,55.6266836],[37.5827831,55.6251651],[37.5858366,55.6250892],[37.5855677,55.6240348],[37.5882517,55.6235033],[37.5917909,55.6240571],[37.6141762,55.6206696],[37.6148946,55.6222578],[37.6233673,55.6210546],[37.6308675,55.6218782]]]}},{"type":"Feature","id":"d548619","properties":{"id":"d548619","name":"Выхино-Жулебино","nameEn":"Vykhino-Zhulebino","tier":"commons","price":2,"area":15,"okrug":"ЮВАО","okrugEn":"SEAO","center":[37.81223,55.69399]},"geometry":{"type":"Polygon","coordinates":[[[37.8098178,55.6757765],[37.8119607,55.6745584],[37.8100267,55.6759049],[37.8180946,55.6803695],[37.8219979,55.6782862],[37.8250236,55.6795105],[37.830383,55.6772759],[37.8345286,55.67789],[37.832464,55.6830379],[37.8327674,55.6840322],[37.8346578,55.6846435],[37.8568896,55.6757013],[37.8589569,55.6772117],[37.864792,55.6873501],[37.8647451,55.6882644],[37.8600053,55.6910309],[37.8640933,55.6936883],[37.8561665,55.6987648],[37.858407,55.7001245],[37.8573155,55.7006976],[37.858176,55.7012543],[37.8534354,55.7037885],[37.7991182,55.7221056],[37.7895141,55.6906717],[37.7872589,55.690481],[37.7872435,55.6891162],[37.7911241,55.6871052],[37.7985774,55.6889831],[37.8055047,55.687955],[37.8025289,55.6804869],[37.8053178,55.6802812],[37.8044943,55.6774196],[37.8079326,55.6746361],[37.8098178,55.6757765]]]}},{"type":"Feature","id":"d574667","properties":{"id":"d574667","name":"Вешняки","nameEn":"Veshnyaki","tier":"commons","price":2,"area":10.5,"okrug":"ВАО","okrugEn":"EAO","center":[37.81203,55.72983]},"geometry":{"type":"Polygon","coordinates":[[[37.7735886,55.7355061],[37.767519,55.7341543],[37.7758967,55.7299391],[37.8360239,55.709776],[37.8386129,55.71552],[37.8426838,55.749073],[37.7735886,55.7355061]]]}},{"type":"Feature","id":"d950639","properties":{"id":"d950639","name":"Бирюлёво Восточное","nameEn":"Biryulyovo Vostochnoye","tier":"commons","price":2,"area":14.8,"okrug":"ЮАО","okrugEn":"SAO","center":[37.69036,55.59969]},"geometry":{"type":"Polygon","coordinates":[[[37.6713878,55.6199826],[37.6639971,55.616359],[37.6407213,55.6105027],[37.6497826,55.6000137],[37.6593838,55.5833863],[37.6606602,55.5771352],[37.664279,55.5716295],[37.6760494,55.5720884],[37.6851823,55.5741203],[37.6909246,55.5723191],[37.6925643,55.5771246],[37.7245037,55.5893131],[37.71492,55.5967246],[37.7025746,55.5991531],[37.7001391,55.6021922],[37.6963559,55.6028263],[37.6956907,55.6041195],[37.6918314,55.6055919],[37.6913258,55.6070776],[37.6874303,55.6074423],[37.680531,55.610099],[37.6778832,55.6142494],[37.6777359,55.6178977],[37.6801071,55.6216764],[37.6759672,55.621924],[37.6730482,55.619692],[37.6713878,55.6199826]]]}},{"type":"Feature","id":"d950641","properties":{"id":"d950641","name":"Царицыно","nameEn":"Tsaritsyno","tier":"commons","price":2,"area":8.3,"okrug":"ЮАО","okrugEn":"SAO","center":[37.64337,55.63414]},"geometry":{"type":"Polygon","coordinates":[[[37.6546499,55.637936],[37.6412561,55.6385958],[37.6417705,55.6408549],[37.6325215,55.6396716],[37.6250668,55.6399782],[37.6288576,55.6253984],[37.6348372,55.6149312],[37.6407213,55.6105027],[37.6682007,55.6178775],[37.6840472,55.6300221],[37.6869546,55.6363412],[37.6546499,55.637936]]]}},{"type":"Feature","id":"d950658","properties":{"id":"d950658","name":"Бирюлёво Западное","nameEn":"Biryulyovo Zapadnoye","tier":"commons","price":2,"area":8.4,"okrug":"ЮАО","okrugEn":"SAO","center":[37.64277,55.58713]},"geometry":{"type":"Polygon","coordinates":[[[37.6332177,55.6042536],[37.6283376,55.5993446],[37.6193528,55.5949314],[37.6157367,55.5913157],[37.6131252,55.5746309],[37.6496649,55.5724788],[37.6507517,55.5717346],[37.664279,55.5716295],[37.6606602,55.5771352],[37.6595933,55.5828777],[37.655946,55.5895548],[37.6491177,55.6010795],[37.6427391,55.6089582],[37.6406238,55.6104585],[37.6332177,55.6042536]]]}},{"type":"Feature","id":"d950664","properties":{"id":"d950664","name":"Чертаново Южное","nameEn":"Chertanovo Yuzhnoye","tier":"commons","price":2,"area":9.1,"okrug":"ЮАО","okrugEn":"SAO","center":[37.59606,55.58991]},"geometry":{"type":"Polygon","coordinates":[[[37.5902164,55.6058882],[37.5816578,55.6045404],[37.5817703,55.6034936],[37.5767147,55.5992866],[37.5766634,55.5978687],[37.580571,55.5977608],[37.5802368,55.5958133],[37.578974,55.5959134],[37.5771393,55.5916342],[37.5774788,55.5863496],[37.5729399,55.5809669],[37.5900931,55.5768957],[37.5971963,55.5690831],[37.5974676,55.5668718],[37.6022876,55.5663727],[37.6005631,55.5707353],[37.5978046,55.5738788],[37.6003203,55.5753745],[37.603685,55.5752108],[37.6041629,55.5744194],[37.6055416,55.5750574],[37.6131252,55.5746309],[37.6157367,55.5913157],[37.6193528,55.5949314],[37.6283376,55.5993446],[37.6332177,55.6042536],[37.6213442,55.6079827],[37.6093004,55.6100728],[37.6059143,55.6033297],[37.5900057,55.6049868],[37.5902164,55.6058882]]]}},{"type":"Feature","id":"d951305","properties":{"id":"d951305","name":"Чертаново Центральное","nameEn":"Chertanovo Tsentralnoye","tier":"commons","price":2,"area":6.8,"okrug":"ЮАО","okrugEn":"SAO","center":[37.59389,55.61471]},"geometry":{"type":"Polygon","coordinates":[[[37.5718031,55.6060715],[37.5748996,55.606596],[37.5778221,55.6043664],[37.5902164,55.6058882],[37.5900057,55.6049868],[37.6059143,55.6033297],[37.6093004,55.6100728],[37.6213442,55.6079827],[37.6332177,55.6042536],[37.6407213,55.6105027],[37.6348372,55.6149312],[37.6308675,55.6218782],[37.6233673,55.6210546],[37.6148946,55.6222578],[37.6141762,55.6206696],[37.5917909,55.6240571],[37.5882517,55.6235033],[37.5838093,55.6254017],[37.5813932,55.6240714],[37.5816589,55.6229194],[37.5826329,55.6232446],[37.5805352,55.6217889],[37.5769209,55.6219629],[37.574745,55.6200474],[37.5804987,55.6193862],[37.5794247,55.6196914],[37.5759344,55.6155066],[37.5780867,55.614758],[37.5746262,55.6132284],[37.5757104,55.6122829],[37.5746859,55.6088169],[37.5699163,55.6084693],[37.5698955,55.607243],[37.5718031,55.6060715]]]}},{"type":"Feature","id":"d951334","properties":{"id":"d951334","name":"Ясенево","nameEn":"Yasenevo","tier":"commons","price":2,"area":24.7,"okrug":"ЮЗАО","okrugEn":"SWAO","center":[37.55368,55.6165]},"geometry":{"type":"Polygon","coordinates":[[[37.5718031,55.6060715],[37.5698955,55.607243],[37.5699163,55.6084693],[37.5746859,55.6088169],[37.5757104,55.6122829],[37.5746262,55.6132284],[37.5780867,55.614758],[37.5759344,55.6155066],[37.5794247,55.6196914],[37.5804987,55.6193862],[37.574745,55.6200474],[37.5763973,55.6217558],[37.5805352,55.6217889],[37.5826329,55.6232446],[37.5816589,55.6229194],[37.5813932,55.6240714],[37.5843505,55.6266836],[37.5840882,55.627995],[37.5850272,55.628723],[37.5841652,55.6286932],[37.5858587,55.6311686],[37.5772657,55.6326769],[37.577406,55.6343603],[37.5805944,55.635911],[37.5798446,55.6360226],[37.5822546,55.638467],[37.5812618,55.6408951],[37.5820011,55.6412222],[37.5792904,55.6428012],[37.5803884,55.6453262],[37.5639978,55.6494629],[37.558895,55.6440563],[37.5453262,55.6387456],[37.540383,55.6314878],[37.5405586,55.6286422],[37.5244332,55.6236323],[37.5126525,55.6257753],[37.5012058,55.6163152],[37.490601,55.6104479],[37.4883331,55.608273],[37.491179,55.6101003],[37.5065527,55.5982494],[37.5118794,55.5955961],[37.5262906,55.5916192],[37.5272405,55.5896631],[37.5290791,55.5895265],[37.5304243,55.5906958],[37.5695504,55.5818072],[37.5736777,55.5822096],[37.5774788,55.5863496],[37.5771393,55.5916342],[37.578974,55.5959134],[37.5802368,55.5958133],[37.580571,55.5977608],[37.5766634,55.5978687],[37.5764883,55.5986537],[37.5817703,55.6034936],[37.5815648,55.6043428],[37.5778221,55.6043664],[37.5748996,55.606596],[37.5718031,55.6060715]]]}},{"type":"Feature","id":"d951336","properties":{"id":"d951336","name":"Тёплый Стан","nameEn":"Tyoply Stan","tier":"commons","price":2,"area":8.4,"okrug":"ЮЗАО","okrugEn":"SWAO","center":[37.49375,55.6326]},"geometry":{"type":"Polygon","coordinates":[[[37.5204897,55.6343014],[37.4869566,55.6466385],[37.4824662,55.6494605],[37.4557187,55.6370488],[37.4607823,55.6370638],[37.4876936,55.6143544],[37.4890191,55.6124443],[37.4883331,55.608273],[37.5046081,55.6188216],[37.5170982,55.6296323],[37.5204897,55.6343014]]]}},{"type":"Feature","id":"d952191","properties":{"id":"d952191","name":"Коньково","nameEn":"Konkovo","tier":"commons","price":2,"area":7.8,"okrug":"ЮЗАО","okrugEn":"SWAO","center":[37.52282,55.64145]},"geometry":{"type":"Polygon","coordinates":[[[37.5093164,55.6379703],[37.5204897,55.6343014],[37.5170982,55.6296323],[37.5126525,55.6257753],[37.5244332,55.6236323],[37.5405586,55.6286422],[37.540383,55.6314878],[37.5453262,55.6387456],[37.558895,55.6440563],[37.5639978,55.6494629],[37.5482279,55.652076],[37.5384134,55.6558819],[37.5253417,55.657309],[37.5227797,55.6552983],[37.5210107,55.6558513],[37.5200721,55.6551826],[37.5218936,55.6546422],[37.5132541,55.6480948],[37.5088282,55.6499689],[37.4985134,55.6421875],[37.5093164,55.6379703]]]}},{"type":"Feature","id":"d1250526","properties":{"id":"d1250526","name":"Алексеевский","nameEn":"Alexeyevsky","tier":"district","price":8,"area":5.2,"okrug":"СВАО","okrugEn":"NEAO","center":[37.65104,55.81276]},"geometry":{"type":"Polygon","coordinates":[[[37.6450264,55.8243893],[37.6389644,55.8178367],[37.635,55.7971703],[37.6460562,55.7909368],[37.651542,55.78936],[37.6501162,55.7927927],[37.65072,55.7994188],[37.6680768,55.819874],[37.6706941,55.8243936],[37.667374,55.8249374],[37.6653016,55.8265852],[37.654399,55.8286426],[37.6534869,55.8301181],[37.655154,55.832127],[37.6542744,55.8332803],[37.6450264,55.8243893]]]}},{"type":"Feature","id":"d1250618","properties":{"id":"d1250618","name":"Свиблово","nameEn":"Sviblovo","tier":"commons","price":2,"area":4.4,"okrug":"СВАО","okrugEn":"NEAO","center":[37.64305,55.85587]},"geometry":{"type":"Polygon","coordinates":[[[37.6714545,55.8468087],[37.6719431,55.8504254],[37.661901,55.8569507],[37.6528969,55.8576241],[37.6463805,55.8612836],[37.6417319,55.8653231],[37.6338548,55.8606139],[37.6329008,55.8573567],[37.6250362,55.8573813],[37.6262976,55.8552493],[37.626713,55.8460765],[37.650557,55.8446206],[37.663447,55.8408247],[37.6714545,55.8468087]]]}},{"type":"Feature","id":"d1250619","properties":{"id":"d1250619","name":"Останкинский","nameEn":"Ostankinsky","tier":"landmark","price":0,"area":12.5,"okrug":"СВАО","okrugEn":"NEAO","center":[37.61473,55.83701],"hook":"ВДНХ и Останкино","hookEn":"VDNKh & Ostankino Tower"},"geometry":{"type":"Polygon","coordinates":[[[37.6355321,55.7996209],[37.6392953,55.8185884],[37.6496267,55.8289427],[37.6366684,55.8338244],[37.6342529,55.8338081],[37.6342293,55.835324],[37.6320152,55.8359499],[37.6323708,55.8386208],[37.6366978,55.8378155],[37.6358304,55.8457449],[37.626713,55.8460765],[37.6262976,55.8552493],[37.6251351,55.8576909],[37.6203564,55.8592482],[37.6200915,55.8544045],[37.612321,55.8464823],[37.592823,55.8473146],[37.5904576,55.8448556],[37.5871731,55.8448303],[37.5863308,55.8435376],[37.5894925,55.8389928],[37.5858689,55.8402296],[37.5820902,55.8383122],[37.5805283,55.8388417],[37.5804063,55.8338744],[37.586035,55.8329643],[37.5915559,55.8336092],[37.5907792,55.8364945],[37.6003285,55.8308024],[37.6034899,55.8186089],[37.602945,55.8176554],[37.6349446,55.7969467],[37.6355321,55.7996209]]]}},{"type":"Feature","id":"d1250724","properties":{"id":"d1250724","name":"Марфино","nameEn":"Marfino","tier":"commons","price":2,"area":2.1,"okrug":"СВАО","okrugEn":"NEAO","center":[37.59071,55.83569]},"geometry":{"type":"Polygon","coordinates":[[[37.5737717,55.8484763],[37.575414,55.8439302],[37.5786726,55.8394438],[37.5783617,55.8371429],[37.5761106,55.8348039],[37.602945,55.8176554],[37.6035905,55.8179876],[37.6003285,55.8308024],[37.5907792,55.8364945],[37.5915559,55.8336092],[37.586035,55.8329643],[37.5804063,55.8338744],[37.5805283,55.8388417],[37.5820902,55.8383122],[37.5858689,55.8402296],[37.5894925,55.8389928],[37.5863308,55.8435376],[37.5871731,55.8448303],[37.5904576,55.8448556],[37.592823,55.8473146],[37.5737717,55.8484763]]]}},{"type":"Feature","id":"d1252407","properties":{"id":"d1252407","name":"Марьина Роща","nameEn":"Maryina Roshcha","tier":"district","price":8,"area":4.7,"okrug":"СВАО","okrugEn":"NEAO","center":[37.60897,55.79057]},"geometry":{"type":"Polygon","coordinates":[[[37.5889044,55.7924632],[37.5992958,55.7924817],[37.6017199,55.7851689],[37.6046083,55.7853117],[37.6123334,55.7825515],[37.6148355,55.7834787],[37.6153469,55.7826572],[37.6168144,55.7865337],[37.6163097,55.793116],[37.6346377,55.7918923],[37.634957,55.7969453],[37.613589,55.8107068],[37.5954563,55.8053275],[37.596375,55.7986749],[37.5920679,55.7960952],[37.5889044,55.7924632]]]}},{"type":"Feature","id":"d1252424","properties":{"id":"d1252424","name":"Бутырский","nameEn":"Butyrsky","tier":"district","price":8,"area":5,"okrug":"СВАО","okrugEn":"NEAO","center":[37.58858,55.80843]},"geometry":{"type":"Polygon","coordinates":[[[37.5881085,55.7925924],[37.596375,55.7986749],[37.5954563,55.8053275],[37.613589,55.8107068],[37.5761106,55.8348039],[37.5735936,55.8314728],[37.5741424,55.8219591],[37.5778185,55.8166406],[37.5793077,55.8118077],[37.5847301,55.8086824],[37.5806522,55.8082874],[37.5823396,55.8055211],[37.5844248,55.7949956],[37.5881085,55.7925924]]]}},{"type":"Feature","id":"d1252448","properties":{"id":"d1252448","name":"Лосиноостровский","nameEn":"Losinoostrovsky","tier":"commons","price":2,"area":5.3,"okrug":"СВАО","okrugEn":"NEAO","center":[37.6832,55.87827]},"geometry":{"type":"Polygon","coordinates":[[[37.6804105,55.8774076],[37.6760464,55.8707632],[37.6753153,55.8679693],[37.6834915,55.8643769],[37.6815801,55.8630982],[37.6811055,55.8619082],[37.6818107,55.8615421],[37.7197072,55.8859102],[37.7071883,55.8923311],[37.6987201,55.894336],[37.6851245,55.8951999],[37.6849756,55.8917584],[37.6811936,55.8857423],[37.6782185,55.8832515],[37.6751109,55.8836915],[37.6783985,55.8810911],[37.6804105,55.8774076]]]}},{"type":"Feature","id":"d1252465","properties":{"id":"d1252465","name":"Бабушкинский","nameEn":"Babushkinsky","tier":"commons","price":2,"area":4.9,"okrug":"СВАО","okrugEn":"NEAO","center":[37.6651,55.86928]},"geometry":{"type":"Polygon","coordinates":[[[37.6751109,55.8836915],[37.6731886,55.8836845],[37.673728,55.8828729],[37.6716995,55.8820887],[37.6650665,55.8823636],[37.6588094,55.8808009],[37.6572169,55.8786482],[37.6574259,55.8750189],[37.6586782,55.873592],[37.6580911,55.8726804],[37.6516027,55.8703214],[37.648474,55.8677719],[37.6488306,55.8666706],[37.6417319,55.8653231],[37.6419985,55.8645646],[37.6528969,55.8576241],[37.661901,55.8569507],[37.6719431,55.8504254],[37.6738512,55.8556758],[37.6818107,55.8615421],[37.6811055,55.8619082],[37.6815801,55.8630982],[37.6834915,55.8643769],[37.6753153,55.8679693],[37.6760464,55.8707632],[37.6806623,55.8768813],[37.6783985,55.8810911],[37.6751109,55.8836915]]]}},{"type":"Feature","id":"d1255563","properties":{"id":"d1255563","name":"Рязанский","nameEn":"Ryazansky","tier":"commons","price":2,"area":6.4,"okrug":"ЮВАО","okrugEn":"SEAO","center":[37.76864,55.71659]},"geometry":{"type":"Polygon","coordinates":[[[37.7557233,55.7120328],[37.7743975,55.7168426],[37.7806651,55.7092418],[37.7945449,55.707374],[37.7991182,55.7221056],[37.7758967,55.7299391],[37.767519,55.7341543],[37.7619153,55.733177],[37.7602782,55.7307868],[37.7566617,55.728905],[37.7356579,55.7250641],[37.7389705,55.7246057],[37.7423946,55.7216238],[37.7490007,55.7103029],[37.7557233,55.7120328]]]}},{"type":"Feature","id":"d1255576","properties":{"id":"d1255576","name":"Косино-Ухтомский","nameEn":"Kosino-Ukhtomsky","tier":"commons","price":2,"area":15.2,"okrug":"ВАО","okrugEn":"EAO","center":[37.90346,55.7202]},"geometry":{"type":"Polygon","coordinates":[[[37.858176,55.7012543],[37.8600534,55.7011368],[37.8715322,55.6952975],[37.8869711,55.7052153],[37.9219165,55.7079613],[37.9261146,55.7121868],[37.9262538,55.7151497],[37.9280699,55.716159],[37.9365872,55.7162384],[37.9456503,55.7208385],[37.9426104,55.7220519],[37.9376089,55.726887],[37.9308738,55.729755],[37.9285228,55.7293536],[37.9235854,55.7312255],[37.9180394,55.7306219],[37.9150477,55.7269838],[37.9077903,55.724506],[37.9028954,55.7253249],[37.8993176,55.7236191],[37.8923084,55.7231871],[37.8906332,55.722309],[37.8898505,55.7237012],[37.8854775,55.7241916],[37.8841562,55.7233962],[37.8871291,55.721653],[37.8869204,55.7202606],[37.8824863,55.7190029],[37.8765345,55.7204709],[37.8769962,55.7216165],[37.8761077,55.7233852],[37.8724504,55.723377],[37.8702706,55.7265861],[37.8734123,55.7296476],[37.869536,55.7323862],[37.8621875,55.7325603],[37.8613031,55.7305231],[37.8476663,55.7311826],[37.8404157,55.7304867],[37.8386129,55.71552],[37.8360239,55.709776],[37.8534354,55.7037885],[37.858176,55.7012543]]]}},{"type":"Feature","id":"d1255602","properties":{"id":"d1255602","name":"Новокосино","nameEn":"Novokosino","tier":"commons","price":2,"area":3.8,"okrug":"ВАО","okrugEn":"EAO","center":[37.86362,55.74132]},"geometry":{"type":"Polygon","coordinates":[[[37.8797417,55.7411885],[37.8801347,55.7422928],[37.8817499,55.742731],[37.8900854,55.7416036],[37.8909533,55.7421946],[37.8882457,55.7484642],[37.8825409,55.7493396],[37.863233,55.745573],[37.8479957,55.7444999],[37.8457065,55.7448717],[37.8420082,55.7472241],[37.8404157,55.7304867],[37.8476663,55.7311826],[37.8613031,55.7305231],[37.8621875,55.7325603],[37.869536,55.7323862],[37.865471,55.7331585],[37.864238,55.7347168],[37.8684891,55.7372895],[37.8780087,55.7378695],[37.8797417,55.7411885]]]}},{"type":"Feature","id":"d1255680","properties":{"id":"d1255680","name":"Северное Измайлово","nameEn":"Severnoye Izmaylovo","tier":"commons","price":2,"area":4.1,"okrug":"ВАО","okrugEn":"EAO","center":[37.80352,55.80607]},"geometry":{"type":"Polygon","coordinates":[[[37.7511279,55.8021376],[37.8404123,55.803686],[37.8397912,55.8117392],[37.8437616,55.8147738],[37.81176,55.8106461],[37.7805676,55.8096152],[37.7511279,55.8021376]]]}},{"type":"Feature","id":"d1255704","properties":{"id":"d1255704","name":"Восточное Измайлово","nameEn":"Vostochnoye Izmaylovo","tier":"commons","price":2,"area":3.8,"okrug":"ВАО","okrugEn":"EAO","center":[37.81617,55.79493]},"geometry":{"type":"Polygon","coordinates":[[[37.8054509,55.7964594],[37.8055777,55.7933444],[37.7994548,55.7932395],[37.799932,55.7882733],[37.8231829,55.788951],[37.8235357,55.7902185],[37.8299659,55.7893253],[37.8341552,55.7876543],[37.8420251,55.7889634],[37.8404123,55.803686],[37.8051168,55.8028665],[37.8054509,55.7964594]]]}},{"type":"Feature","id":"d1255942","properties":{"id":"d1255942","name":"Замоскворечье","nameEn":"Zamoskvorechye","tier":"center","price":25,"area":4.3,"okrug":"ЦАО","okrugEn":"CAO","center":[37.62937,55.73258]},"geometry":{"type":"Polygon","coordinates":[[[37.6246017,55.7399081],[37.6238257,55.7295767],[37.619613,55.7292455],[37.6199362,55.7273112],[37.6150768,55.7269444],[37.6177554,55.7202891],[37.6330619,55.7225646],[37.6358021,55.72202],[37.6364244,55.7235433],[37.6437423,55.7224038],[37.645995,55.729465],[37.6522857,55.7280661],[37.6542108,55.7288214],[37.6504945,55.7312757],[37.6428134,55.7434769],[37.6377065,55.747366],[37.631194,55.7490145],[37.6250593,55.7490845],[37.6263845,55.7459815],[37.624573,55.7455045],[37.6246017,55.7399081]]]}},{"type":"Feature","id":"d1255987","properties":{"id":"d1255987","name":"Хамовники","nameEn":"Khamovniki","tier":"landmark","price":0,"area":10,"okrug":"ЦАО","okrugEn":"CAO","center":[37.58982,55.74245],"hook":"Лужники и Новодевичий","hookEn":"Luzhniki & Novodevichy"},"geometry":{"type":"Polygon","coordinates":[[[37.6107792,55.7484849],[37.604292,55.7503962],[37.6029388,55.7486045],[37.5997189,55.7488917],[37.5993398,55.7470712],[37.5957114,55.7476453],[37.5858125,55.7463041],[37.5874302,55.7441024],[37.583799,55.7437518],[37.5830409,55.7454913],[37.5741284,55.745431],[37.5657503,55.736401],[37.5430747,55.7255663],[37.5411815,55.7220558],[37.5418853,55.7175946],[37.5433307,55.7156172],[37.5485159,55.7122628],[37.5568729,55.7103426],[37.5654006,55.7107574],[37.5776083,55.7142058],[37.5820802,55.7167415],[37.5902997,55.7235646],[37.6000268,55.7345861],[37.6067405,55.7380857],[37.6083235,55.7431182],[37.6121969,55.746766],[37.6107792,55.7484849]]]}},{"type":"Feature","id":"d1257218","properties":{"id":"d1257218","name":"Красносельский","nameEn":"Krasnoselsky","tier":"center","price":25,"area":5,"okrug":"ЦАО","okrugEn":"CAO","center":[37.64885,55.77346]},"geometry":{"type":"Polygon","coordinates":[[[37.6857288,55.7817185],[37.6882667,55.781899],[37.6518163,55.7890984],[37.6460562,55.7909368],[37.642957,55.7930115],[37.6402463,55.7924514],[37.6420771,55.790161],[37.6417328,55.7881261],[37.6448401,55.7798433],[37.6412894,55.7797075],[37.637267,55.7720615],[37.6325778,55.772651],[37.6314796,55.7665279],[37.6286781,55.7631076],[37.6306074,55.7634126],[37.6300531,55.7608296],[37.6283516,55.7598643],[37.6312132,55.760257],[37.6372925,55.7651344],[37.6446919,55.7684735],[37.6629987,55.7697322],[37.6644256,55.7733076],[37.6758868,55.7783862],[37.6801021,55.7771195],[37.6857288,55.7817185]]]}},{"type":"Feature","id":"d1257472","properties":{"id":"d1257472","name":"Можайский","nameEn":"Mozhaysky","tier":"commons","price":2,"area":16.9,"okrug":"","okrugEn":"","center":[37.38065,55.70285]},"geometry":{"type":"Polygon","coordinates":[[[37.3336066,55.6832286],[37.3348271,55.6824529],[37.3325117,55.6829408],[37.3309701,55.6815531],[37.3268711,55.6829631],[37.3292925,55.6856526],[37.3262279,55.68276],[37.3460859,55.6762989],[37.3489862,55.678562],[37.3542991,55.6763211],[37.3611,55.6820978],[37.3550715,55.6855232],[37.357973,55.6917385],[37.3610831,55.6900911],[37.3596676,55.6890355],[37.3639508,55.6877694],[37.3626871,55.6887764],[37.3633645,55.6899639],[37.3643209,55.6906915],[37.3660692,55.6901032],[37.3679036,55.6917278],[37.372858,55.6910665],[37.371502,55.6900401],[37.3748651,55.6889363],[37.3901959,55.6967759],[37.3936964,55.6948131],[37.3943217,55.6963587],[37.3966154,55.696523],[37.3952772,55.6989981],[37.3972463,55.6965515],[37.4056495,55.7002475],[37.4044611,55.7026775],[37.4119535,55.7067121],[37.4120211,55.7075676],[37.420495,55.704552],[37.4212797,55.7080662],[37.4305886,55.7041643],[37.4355182,55.7057383],[37.4478698,55.7070097],[37.4487234,55.7094928],[37.4549618,55.7091036],[37.4476114,55.7269112],[37.4128741,55.7270669],[37.3908538,55.7299209],[37.3819089,55.728704],[37.3772042,55.7290798],[37.3792684,55.7250186],[37.378454,55.7233384],[37.3811235,55.7213834],[37.3843099,55.7151659],[37.3815623,55.7126033],[37.386661,55.7111475],[37.3924774,55.7059193],[37.3879413,55.7043201],[37.3882393,55.7032332],[37.3904837,55.7024365],[37.3886458,55.7007934],[37.3921625,55.6984232],[37.3898298,55.6969492],[37.3878858,55.6981045],[37.3854471,55.6969691],[37.382014,55.6985367],[37.3781937,55.6968433],[37.3775716,55.7088506],[37.3767396,55.7106743],[37.3754669,55.7114978],[37.3694445,55.7103633],[37.3644213,55.7089047],[37.3651927,55.7080444],[37.3693474,55.7084951],[37.3690857,55.7074115],[37.3661551,55.7070035],[37.368481,55.7036899],[37.3709402,55.7036925],[37.36774,55.7032986],[37.3691059,55.702475],[37.3668194,55.7021291],[37.365914,55.7029208],[37.3646683,55.701862],[37.365595,55.7009431],[37.3633127,55.7018251],[37.3633195,55.7007325],[37.3573203,55.7005489],[37.3574355,55.6995235],[37.3533615,55.7004503],[37.3531138,55.7017954],[37.3560893,55.7047715],[37.3514621,55.7022513],[37.3518141,55.7001658],[37.347376,55.6976493],[37.3449652,55.6983969],[37.3423737,55.6932191],[37.3438553,55.6892225],[37.3385424,55.6872882],[37.3378599,55.6901498],[37.3386913,55.6925674],[37.3376329,55.6935156],[37.3294276,55.6857865],[37.3339095,55.6842],[37.3336066,55.6832286]]]}},{"type":"Feature","id":"d1257484","properties":{"id":"d1257484","name":"Арбат","nameEn":"Arbat","tier":"landmark","price":0,"area":2.1,"okrug":"ЦАО","okrugEn":"CAO","center":[37.59463,55.75103],"hook":"Старый Арбат","hookEn":"Old Arbat"},"geometry":{"type":"Polygon","coordinates":[[[37.5817437,55.7455056],[37.5830409,55.7454913],[37.583799,55.7437518],[37.5874302,55.7441024],[37.5858125,55.7463041],[37.5957114,55.7476453],[37.5993398,55.7470712],[37.5997189,55.7488917],[37.6029388,55.7486045],[37.604292,55.7503962],[37.6088003,55.7491855],[37.6122435,55.7545607],[37.6073565,55.7561042],[37.606006,55.7540023],[37.6022721,55.7535973],[37.5844558,55.7581108],[37.5838328,55.7552616],[37.576776,55.7552186],[37.5745431,55.7529513],[37.5720599,55.7520197],[37.5744922,55.7488635],[37.5741284,55.745431],[37.5817437,55.7455056]]]}},{"type":"Feature","id":"d1257786","properties":{"id":"d1257786","name":"Тверской","nameEn":"Tverskoy","tier":"landmark","price":0,"area":7.3,"okrug":"ЦАО","okrugEn":"CAO","center":[37.60681,55.77002],"hook":"Кремль и Красная площадь","hookEn":"The Kremlin & Red Square"},"geometry":{"type":"Polygon","coordinates":[[[37.5899695,55.7924329],[37.5877997,55.7926366],[37.5886333,55.7920566],[37.5847927,55.7798664],[37.5802536,55.7770469],[37.5752326,55.7755208],[37.5762249,55.773751],[37.5771105,55.7731591],[37.5833151,55.7752557],[37.5967437,55.7676577],[37.5949842,55.7664381],[37.5989072,55.7642837],[37.6006151,55.7648689],[37.6042189,55.7631848],[37.6036935,55.7626494],[37.6062175,55.7612508],[37.6056714,55.7608712],[37.6097604,55.7583255],[37.6069962,55.7562189],[37.6122435,55.7545607],[37.6088003,55.7491855],[37.610612,55.7486362],[37.6121969,55.746766],[37.6213552,55.7488248],[37.6320746,55.748884],[37.6335148,55.7534187],[37.6349112,55.7539883],[37.6340854,55.7550788],[37.6278676,55.759523],[37.6288346,55.7598288],[37.6266878,55.760454],[37.620909,55.7589912],[37.6198963,55.7652602],[37.6214026,55.7669027],[37.6210177,55.7733223],[37.6189362,55.7736414],[37.6172478,55.7799329],[37.6149324,55.7815912],[37.6153273,55.7822546],[37.6046083,55.7853117],[37.6017199,55.7851689],[37.5992958,55.7924817],[37.5899695,55.7924329]]]}},{"type":"Feature","id":"d1275551","properties":{"id":"d1275551","name":"Пресненский","nameEn":"Presnensky","tier":"landmark","price":0,"area":11.6,"okrug":"ЦАО","okrugEn":"CAO","center":[37.58104,55.76212],"hook":"Москва-Сити","hookEn":"Moscow City towers"},"geometry":{"type":"Polygon","coordinates":[[[37.5801941,55.7742043],[37.5771105,55.7731591],[37.5752326,55.7755208],[37.5710802,55.7754258],[37.5433979,55.7727917],[37.5371295,55.7697608],[37.536061,55.7661039],[37.5347649,55.7661935],[37.5318193,55.7632157],[37.5242852,55.7598459],[37.5225622,55.7616884],[37.5139298,55.7584219],[37.516299,55.7568334],[37.5202286,55.7500222],[37.5236375,55.7463273],[37.527972,55.7446122],[37.5324042,55.7443963],[37.5403745,55.7454577],[37.5601783,55.7530784],[37.5678832,55.7533558],[37.5720599,55.7520197],[37.5745431,55.7529513],[37.576776,55.7552186],[37.5838328,55.7552616],[37.5844558,55.7581108],[37.6022721,55.7535973],[37.606006,55.7540023],[37.6069962,55.7562189],[37.6097604,55.7583255],[37.6056714,55.7608712],[37.6062175,55.7612508],[37.6036935,55.7626494],[37.6042189,55.7631848],[37.6006151,55.7648689],[37.5989072,55.7642837],[37.5949842,55.7664381],[37.5967437,55.7676577],[37.5833151,55.7752557],[37.5801941,55.7742043]]]}},{"type":"Feature","id":"d1275608","properties":{"id":"d1275608","name":"Таганский","nameEn":"Tagansky","tier":"center","price":25,"area":8.1,"okrug":"ЦАО","okrugEn":"CAO","center":[37.66131,55.74374]},"geometry":{"type":"Polygon","coordinates":[[[37.6341683,55.7536235],[37.6320746,55.748884],[37.6377065,55.747366],[37.6413066,55.7450064],[37.6448733,55.7411336],[37.6504945,55.7312757],[37.6567176,55.7263724],[37.6631267,55.7267583],[37.6606903,55.7307034],[37.6658108,55.7316354],[37.6674635,55.7308639],[37.6705808,55.7258255],[37.6789183,55.7282645],[37.6805828,55.7276832],[37.6814418,55.7290399],[37.6858384,55.7301132],[37.6854092,55.7330418],[37.6937001,55.7293029],[37.6988622,55.7364362],[37.6998353,55.7363169],[37.6970804,55.7407909],[37.6923404,55.7438692],[37.6824447,55.7482702],[37.6710524,55.7505562],[37.6662121,55.7531496],[37.6641503,55.7527968],[37.6627015,55.754166],[37.6564048,55.7547533],[37.6504556,55.7531256],[37.6430145,55.7526555],[37.6369656,55.7542043],[37.6341683,55.7536235]]]}},{"type":"Feature","id":"d1275627","properties":{"id":"d1275627","name":"Якиманка","nameEn":"Yakimanka","tier":"center","price":25,"area":4.8,"okrug":"ЦАО","okrugEn":"CAO","center":[37.61296,55.73043]},"geometry":{"type":"Polygon","coordinates":[[[37.6196274,55.7292027],[37.6238257,55.7295767],[37.6250342,55.7424802],[37.624573,55.7455045],[37.6263845,55.7459815],[37.6250593,55.7490845],[37.6169773,55.7481844],[37.6117427,55.7464964],[37.6083235,55.7431182],[37.6067405,55.7380857],[37.6000268,55.7345861],[37.5902997,55.7235646],[37.5820802,55.7167415],[37.5776083,55.7142058],[37.5821396,55.7109925],[37.585594,55.711091],[37.5883361,55.7130959],[37.5879384,55.7139531],[37.5926713,55.7168706],[37.5907951,55.717873],[37.5927146,55.719686],[37.5940838,55.7183252],[37.60031,55.7213012],[37.6093473,55.7195213],[37.6100957,55.7214266],[37.6177554,55.7202891],[37.6150768,55.7269444],[37.6199362,55.7273112],[37.6196274,55.7292027]]]}},{"type":"Feature","id":"d1278046","properties":{"id":"d1278046","name":"Нижегородский","nameEn":"Nizhegorodsky","tier":"district","price":8,"area":7.5,"okrug":"ЮВАО","okrugEn":"SEAO","center":[37.72046,55.73443]},"geometry":{"type":"Polygon","coordinates":[[[37.7602782,55.7307868],[37.7619153,55.733177],[37.767519,55.7341543],[37.7612923,55.7369941],[37.74935,55.7391567],[37.7410175,55.7444517],[37.7367139,55.7459458],[37.7289917,55.7333629],[37.721886,55.7340228],[37.7167247,55.7357526],[37.7137585,55.7385088],[37.7114678,55.7432667],[37.7008301,55.744126],[37.7006047,55.7424387],[37.6965835,55.7423919],[37.6998353,55.7363169],[37.6988622,55.7364362],[37.6937001,55.7293029],[37.6854092,55.7330418],[37.6858384,55.7301132],[37.6804055,55.7284116],[37.6805828,55.7276832],[37.7022453,55.7197385],[37.7150397,55.7235362],[37.7171026,55.7217364],[37.7553475,55.7285998],[37.7602782,55.7307868]]]}},{"type":"Feature","id":"d1278064","properties":{"id":"d1278064","name":"Лефортово","nameEn":"Lefortovo","tier":"district","price":8,"area":9,"okrug":"ЮВАО","okrugEn":"SEAO","center":[37.70422,55.75529]},"geometry":{"type":"Polygon","coordinates":[[[37.7114678,55.7432667],[37.7137585,55.7385088],[37.7167247,55.7357526],[37.721886,55.7340228],[37.7289917,55.7333629],[37.7367139,55.7459458],[37.7236328,55.7495155],[37.7187188,55.7529423],[37.7177132,55.7564833],[37.7206319,55.7624647],[37.7207817,55.7658833],[37.7136135,55.7753027],[37.6972239,55.7668218],[37.6921989,55.7694899],[37.6890397,55.7677739],[37.6858452,55.7639835],[37.6858386,55.7620447],[37.682588,55.7595356],[37.6730154,55.7593289],[37.6704937,55.7579563],[37.6730606,55.7534343],[37.6705308,55.7507488],[37.6832039,55.7480005],[37.6952841,55.7423198],[37.6979194,55.7395896],[37.6965835,55.7423919],[37.7006047,55.7424387],[37.7008301,55.744126],[37.7114678,55.7432667]]]}},{"type":"Feature","id":"d1278096","properties":{"id":"d1278096","name":"Южнопортовый","nameEn":"Yuzhnoportovy","tier":"district","price":8,"area":4.5,"okrug":"ЮВАО","okrugEn":"SEAO","center":[37.67951,55.71838]},"geometry":{"type":"Polygon","coordinates":[[[37.6677708,55.7303547],[37.6658108,55.7316354],[37.6606903,55.7307034],[37.6635975,55.7252212],[37.6636775,55.718132],[37.667811,55.7052824],[37.6672891,55.7007415],[37.6709548,55.7005007],[37.6744855,55.6985085],[37.6842701,55.6974223],[37.6911722,55.7060718],[37.6862771,55.7061783],[37.6790775,55.7147847],[37.7002664,55.7207102],[37.6789183,55.7282645],[37.6705808,55.7258255],[37.6677708,55.7303547]]]}},{"type":"Feature","id":"d1281209","properties":{"id":"d1281209","name":"Даниловский","nameEn":"Danilovsky","tier":"center","price":25,"area":12.5,"okrug":"ЮАО","okrugEn":"SAO","center":[37.63014,55.71644]},"geometry":{"type":"Polygon","coordinates":[[[37.6449111,55.7280119],[37.6437423,55.7224038],[37.6364244,55.7235433],[37.6358021,55.72202],[37.6330619,55.7225646],[37.6137282,55.719881],[37.6136171,55.7166503],[37.6082869,55.7167305],[37.6061565,55.7110689],[37.6064078,55.7095217],[37.6113443,55.704309],[37.6209921,55.7060521],[37.6285727,55.7052553],[37.628308,55.6939962],[37.6315696,55.6866666],[37.6332004,55.6855054],[37.6395948,55.6842715],[37.6652416,55.6862244],[37.667811,55.7052824],[37.6636775,55.718132],[37.6631267,55.7267583],[37.6567176,55.7263724],[37.6542108,55.7288214],[37.6522857,55.7280661],[37.645995,55.729465],[37.6449111,55.7280119]]]}},{"type":"Feature","id":"d1281220","properties":{"id":"d1281220","name":"Академический","nameEn":"Akademichesky","tier":"district","price":8,"area":5.7,"okrug":"ЮЗАО","okrugEn":"SWAO","center":[37.58396,55.68757]},"geometry":{"type":"Polygon","coordinates":[[[37.6015422,55.6915516],[37.5961214,55.6961337],[37.5873424,55.7063265],[37.5614633,55.6916306],[37.5522197,55.6840578],[37.5629886,55.6778921],[37.5779862,55.6727468],[37.5803052,55.6748588],[37.5795097,55.6768589],[37.5860566,55.6791255],[37.597705,55.6898464],[37.6015422,55.6915516]]]}},{"type":"Feature","id":"d1281263","properties":{"id":"d1281263","name":"Черёмушки","nameEn":"Cheryomushki","tier":"commons","price":2,"area":5.4,"okrug":"ЮЗАО","okrugEn":"SWAO","center":[37.55606,55.66915]},"geometry":{"type":"Polygon","coordinates":[[[37.5536497,55.6711426],[37.5551274,55.6706495],[37.5390605,55.6557454],[37.5482279,55.652076],[37.5639978,55.6494629],[37.5856332,55.6701049],[37.5629886,55.6778921],[37.5555624,55.68213],[37.546039,55.6732971],[37.5536497,55.6711426]]]}},{"type":"Feature","id":"d1281648","properties":{"id":"d1281648","name":"Гагаринский","nameEn":"Gagarinsky","tier":"district","price":8,"area":5.5,"okrug":"ЮЗАО","okrugEn":"SWAO","center":[37.55181,55.69095]},"geometry":{"type":"Polygon","coordinates":[[[37.5887529,55.7071218],[37.5776083,55.7142058],[37.5696101,55.7116173],[37.5592321,55.7102802],[37.5365712,55.6935632],[37.5300533,55.689929],[37.5474686,55.6808114],[37.5614633,55.6916306],[37.5887529,55.7071218]]]}},{"type":"Feature","id":"d1281702","properties":{"id":"d1281702","name":"Ломоносовский","nameEn":"Lomonosovsky","tier":"commons","price":2,"area":3.3,"okrug":"ЮЗАО","okrugEn":"SWAO","center":[37.5396,55.6776]},"geometry":{"type":"Polygon","coordinates":[[[37.5242989,55.6735971],[37.5294441,55.6712017],[37.5325108,55.6683439],[37.5409446,55.6685843],[37.5428475,55.6722352],[37.5445876,55.6736905],[37.5460702,55.6732317],[37.5555624,55.68213],[37.5522197,55.6840578],[37.5474686,55.6808114],[37.5300533,55.689929],[37.5116624,55.6797306],[37.5242989,55.6735971]]]}},{"type":"Feature","id":"d1292211","properties":{"id":"d1292211","name":"Котловка","nameEn":"Kotlovka","tier":"district","price":8,"area":3.9,"okrug":"ЮЗАО","okrugEn":"SWAO","center":[37.59963,55.67817]},"geometry":{"type":"Polygon","coordinates":[[[37.5816819,55.6657436],[37.5898879,55.6651839],[37.5969265,55.6662338],[37.6076464,55.6640831],[37.6088349,55.6651531],[37.6106892,55.664966],[37.6116452,55.66608],[37.6059069,55.6690658],[37.6057896,55.6705589],[37.6066929,55.6711721],[37.6056311,55.6723005],[37.6089553,55.6763047],[37.6112922,55.6772175],[37.6117107,55.6786056],[37.6146941,55.6805557],[37.6137024,55.6844758],[37.607168,55.684196],[37.6050228,55.6857954],[37.6052442,55.688807],[37.6037863,55.6906298],[37.6015422,55.6915516],[37.5983486,55.6902876],[37.5860566,55.6791255],[37.5795097,55.6768589],[37.5803052,55.6748588],[37.5779862,55.6727468],[37.5856332,55.6701049],[37.5816819,55.6657436]]]}},{"type":"Feature","id":"d1292286","properties":{"id":"d1292286","name":"Зюзино","nameEn":"Zyuzino","tier":"commons","price":2,"area":5.4,"okrug":"ЮЗАО","okrugEn":"SWAO","center":[37.59249,55.65779]},"geometry":{"type":"Polygon","coordinates":[[[37.5933352,55.6655657],[37.5812455,55.6660253],[37.5639978,55.6494629],[37.5902236,55.6423972],[37.6056701,55.6413716],[37.6054137,55.65653],[37.6135718,55.6634793],[37.6013782,55.6647919],[37.5969265,55.6662338],[37.5933352,55.6655657]]]}},{"type":"Feature","id":"d1292499","properties":{"id":"d1292499","name":"Обручевский","nameEn":"Obruchevsky","tier":"commons","price":2,"area":6,"okrug":"ЮЗАО","okrugEn":"SWAO","center":[37.51954,55.65808]},"geometry":{"type":"Polygon","coordinates":[[[37.5551274,55.6706495],[37.5445876,55.6736905],[37.5422095,55.6715569],[37.5409446,55.6685843],[37.5329805,55.6682454],[37.5294441,55.6712017],[37.5240099,55.6737058],[37.5016534,55.6585246],[37.4824662,55.6494605],[37.4867428,55.6467312],[37.4985134,55.6421875],[37.5088282,55.6499689],[37.5132541,55.6480948],[37.5218936,55.6546422],[37.5200721,55.6551826],[37.5210107,55.6558513],[37.5227797,55.6552983],[37.5253417,55.657309],[37.5390605,55.6557454],[37.5551274,55.6706495]]]}},{"type":"Feature","id":"d1292679","properties":{"id":"d1292679","name":"Проспект Вернадского","nameEn":"Prospekt Vernadskogo","tier":"commons","price":2,"area":4.6,"okrug":"ЗАО","okrugEn":"WAO","center":[37.49426,55.67865]},"geometry":{"type":"Polygon","coordinates":[[[37.502671,55.6651346],[37.5067089,55.6629349],[37.5065428,55.6617784],[37.5240099,55.6737058],[37.5116624,55.6797306],[37.5101376,55.6788427],[37.5082893,55.6811244],[37.509375,55.6828035],[37.5075468,55.6841971],[37.5072893,55.6866309],[37.5057256,55.6878943],[37.4987234,55.6881743],[37.4944276,55.6866804],[37.4886718,55.6886149],[37.4870018,55.6873662],[37.4899018,55.6838222],[37.4862705,55.6821907],[37.484687,55.6830932],[37.4813805,55.6811258],[37.4789719,55.6846764],[37.477159,55.6857133],[37.4781191,55.6837761],[37.474389,55.6813526],[37.4737147,55.6789532],[37.4780633,55.6774403],[37.4838056,55.6706786],[37.4866475,55.6696026],[37.4925769,55.6700349],[37.498515,55.6687384],[37.502671,55.6651346]]]}},{"type":"Feature","id":"d1292731","properties":{"id":"d1292731","name":"Тропарёво-Никулино","nameEn":"Troparyovo-Nikulino","tier":"commons","price":2,"area":11.3,"okrug":"ЗАО","okrugEn":"WAO","center":[37.47889,55.66625]},"geometry":{"type":"Polygon","coordinates":[[[37.502671,55.6651346],[37.498515,55.6687384],[37.4925769,55.6700349],[37.4866475,55.6696026],[37.4838056,55.6706786],[37.4780633,55.6774403],[37.4737147,55.6789532],[37.474389,55.6813526],[37.4781191,55.6837761],[37.477159,55.6857133],[37.4588055,55.6737731],[37.4454381,55.6688702],[37.4383471,55.6636032],[37.4322665,55.662011],[37.4567711,55.6405261],[37.4557187,55.6370488],[37.5016534,55.6585246],[37.5065428,55.6617784],[37.5067089,55.6629349],[37.502671,55.6651346]]]}},{"type":"Feature","id":"d1292749","properties":{"id":"d1292749","name":"Очаково-Матвеевское","nameEn":"Ochakovo-Matveyevskoye","tier":"commons","price":2,"area":17.5,"okrug":"ЗАО","okrugEn":"WAO","center":[37.45468,55.70689]},"geometry":{"type":"Polygon","coordinates":[[[37.4948118,55.7201267],[37.4924264,55.71994],[37.4931321,55.7188817],[37.4925157,55.7180506],[37.4886947,55.7183157],[37.4846734,55.7207588],[37.4767602,55.721529],[37.4732445,55.7199212],[37.4721991,55.7184159],[37.4705072,55.7193792],[37.4691966,55.7190026],[37.4720821,55.7169883],[37.4705888,55.715841],[37.471539,55.7154788],[37.4706983,55.7148058],[37.4714369,55.7138166],[37.4680216,55.7136655],[37.4685769,55.7148195],[37.4668179,55.7156112],[37.4636944,55.7138315],[37.4678703,55.7126089],[37.4670171,55.7114232],[37.4655082,55.7115738],[37.4640602,55.7103526],[37.4618543,55.7111672],[37.4546998,55.7099588],[37.4549618,55.7091036],[37.4487234,55.7094928],[37.4478698,55.7070097],[37.4445111,55.7061223],[37.4355182,55.7057383],[37.4305886,55.7041643],[37.4212797,55.7080662],[37.4202886,55.7045596],[37.4120211,55.7075676],[37.4119535,55.7067121],[37.4045563,55.7027645],[37.4059284,55.7004967],[37.4021617,55.6988389],[37.4124023,55.6904192],[37.41496,55.685267],[37.4151603,55.6824256],[37.4142093,55.6820281],[37.4180305,55.6805476],[37.4322665,55.662011],[37.4345467,55.662394],[37.4383471,55.6636032],[37.4454381,55.6688702],[37.4588055,55.6737731],[37.4775617,55.6859265],[37.4663185,55.6945259],[37.4695454,55.6981992],[37.4905934,55.7092836],[37.4929288,55.7134944],[37.4930927,55.7178328],[37.4948118,55.7201267]]]}},{"type":"Feature","id":"d1298976","properties":{"id":"d1298976","name":"Новогиреево","nameEn":"Novogireyevo","tier":"commons","price":2,"area":4.4,"okrug":"ВАО","okrugEn":"EAO","center":[37.80587,55.7499]},"geometry":{"type":"Polygon","coordinates":[[[37.7782775,55.7416343],[37.776676,55.7385825],[37.773531,55.7375791],[37.7735886,55.7355061],[37.8280834,55.7461576],[37.827627,55.7469509],[37.8308172,55.7493566],[37.8237706,55.7506602],[37.8269788,55.757673],[37.8087009,55.7602404],[37.8056358,55.7533144],[37.8006609,55.7538853],[37.7847935,55.7509158],[37.7878911,55.7455825],[37.7840401,55.7457884],[37.7826209,55.7438813],[37.7830463,55.742805],[37.7811623,55.7419916],[37.7793972,55.7429351],[37.7782775,55.7416343]]]}},{"type":"Feature","id":"d1299013","properties":{"id":"d1299013","name":"Перово","nameEn":"Perovo","tier":"commons","price":2,"area":9.9,"okrug":"ВАО","okrugEn":"EAO","center":[37.77619,55.75149]},"geometry":{"type":"Polygon","coordinates":[[[37.8012406,55.7680066],[37.7918459,55.7661645],[37.7773816,55.7658765],[37.7691693,55.7631962],[37.7689366,55.76397],[37.7547426,55.7604301],[37.7536978,55.7596111],[37.7542156,55.7587455],[37.7196119,55.7519793],[37.7244463,55.7492324],[37.7401818,55.7448321],[37.74935,55.7391567],[37.7612923,55.7369941],[37.767519,55.7341543],[37.7735886,55.7355061],[37.773531,55.7375791],[37.776676,55.7385825],[37.7793972,55.7429351],[37.7811623,55.7419916],[37.7830463,55.742805],[37.7826209,55.7438813],[37.7840401,55.7457884],[37.7878911,55.7455825],[37.7847935,55.7509158],[37.8006609,55.7538853],[37.8056358,55.7533144],[37.8087009,55.7602404],[37.8005785,55.7608886],[37.7997561,55.7624061],[37.8013713,55.7661514],[37.8012406,55.7680066]]]}},{"type":"Feature","id":"d1299031","properties":{"id":"d1299031","name":"Соколиная Гора","nameEn":"Sokolinaya Gora","tier":"district","price":8,"area":7.9,"okrug":"ВАО","okrugEn":"EAO","center":[37.72103,55.77986]},"geometry":{"type":"Polygon","coordinates":[[[37.7453479,55.7700527],[37.7429423,55.7877217],[37.7445056,55.7934888],[37.7346717,55.7938532],[37.7256289,55.7878744],[37.7204543,55.7870024],[37.7168838,55.7879248],[37.7176051,55.785504],[37.7142283,55.7851793],[37.7134251,55.7861301],[37.712054,55.7849879],[37.7067911,55.7845068],[37.7063057,55.7830782],[37.7020118,55.7845808],[37.7007925,55.7827458],[37.6992764,55.7827193],[37.6993516,55.7819726],[37.7052497,55.7809935],[37.7099197,55.7788745],[37.720389,55.7667332],[37.7206319,55.7624647],[37.7176602,55.7559645],[37.7196119,55.7519793],[37.7542156,55.7587455],[37.7509311,55.7645231],[37.7485658,55.7659353],[37.7480395,55.7700472],[37.7453479,55.7700527]]]}},{"type":"Feature","id":"d1299106","properties":{"id":"d1299106","name":"Преображенское","nameEn":"Preobrazhenskoye","tier":"district","price":8,"area":5.6,"okrug":"ВАО","okrugEn":"EAO","center":[37.71776,55.79524]},"geometry":{"type":"Polygon","coordinates":[[[37.7009553,55.7839871],[37.7020118,55.7845808],[37.7063057,55.7830782],[37.7067911,55.7845068],[37.712054,55.7849879],[37.7134251,55.7861301],[37.7142283,55.7851793],[37.7176051,55.785504],[37.7168838,55.7879248],[37.7204543,55.7870024],[37.7256289,55.7878744],[37.7346717,55.7938532],[37.7445056,55.7934888],[37.7461448,55.7985306],[37.7459289,55.80903],[37.7318335,55.8087783],[37.729849,55.8098175],[37.7240882,55.806516],[37.6988032,55.8013426],[37.6991481,55.7990758],[37.7054872,55.7929889],[37.6991318,55.7883665],[37.6992764,55.7827193],[37.7007925,55.7827458],[37.7009553,55.7839871]]]}},{"type":"Feature","id":"d1319060","properties":{"id":"d1319060","name":"Богородское","nameEn":"Bogorodskoye","tier":"district","price":8,"area":8.8,"okrug":"ВАО","okrugEn":"EAO","center":[37.70354,55.81255]},"geometry":{"type":"Polygon","coordinates":[[[37.705866,55.8031634],[37.7076755,55.803656],[37.7087511,55.8028938],[37.7116423,55.8043515],[37.7240882,55.806516],[37.729849,55.8098175],[37.7318335,55.8087783],[37.7449547,55.8089734],[37.7459289,55.80903],[37.7459305,55.8103596],[37.7428123,55.8141203],[37.7331591,55.8188295],[37.6899839,55.8335274],[37.6702104,55.8387396],[37.6715749,55.8290255],[37.6706941,55.8243936],[37.6724714,55.8226193],[37.6792313,55.8182938],[37.687575,55.8171194],[37.6851663,55.8154957],[37.6932468,55.8106118],[37.6953203,55.8117121],[37.6948191,55.8109421],[37.7000492,55.8099181],[37.7018891,55.8058665],[37.6988032,55.8013426],[37.705866,55.8031634]]]}},{"type":"Feature","id":"d1319078","properties":{"id":"d1319078","name":"Метрогородок","nameEn":"Metrogorodok","tier":"commons","price":2,"area":27.3,"okrug":"ВАО","okrugEn":"EAO","center":[37.72534,55.84322]},"geometry":{"type":"Polygon","coordinates":[[[37.7123319,55.8258988],[37.7373555,55.8170485],[37.7428123,55.8141203],[37.7451291,55.8118195],[37.7459289,55.80903],[37.7473809,55.8107265],[37.7658834,55.8179342],[37.784858,55.8225041],[37.7847449,55.8246153],[37.781424,55.8247617],[37.7774058,55.8564419],[37.7347837,55.8784053],[37.7310102,55.8768929],[37.7318197,55.8749452],[37.7242557,55.873008],[37.719672,55.8736992],[37.7158133,55.8701542],[37.7068126,55.8644903],[37.7091864,55.8629558],[37.7094382,55.8609111],[37.7180173,55.8606073],[37.7216393,55.8529241],[37.719405,55.8514226],[37.7201692,55.8505716],[37.7193496,55.8500088],[37.7140751,55.8469149],[37.7035867,55.8487733],[37.6968229,55.8481609],[37.6937646,55.8520726],[37.6947455,55.8533753],[37.6924303,55.8553303],[37.6931332,55.8557966],[37.6894096,55.8559566],[37.6867679,55.8545129],[37.6922843,55.8529088],[37.6899704,55.8512231],[37.6922264,55.8503067],[37.6903183,55.8480056],[37.6783464,55.8418159],[37.6781648,55.8401721],[37.6763165,55.8388216],[37.6702104,55.8387396],[37.6872376,55.8343876],[37.7123319,55.8258988]]]}},{"type":"Feature","id":"d1319142","properties":{"id":"d1319142","name":"Гольяново","nameEn":"Golyanovo","tier":"commons","price":2,"area":14.3,"okrug":"ВАО","okrugEn":"EAO","center":[37.78743,55.82092]},"geometry":{"type":"Polygon","coordinates":[[[37.7963504,55.8101483],[37.81176,55.8106461],[37.8435518,55.8149722],[37.8391745,55.8162615],[37.8373695,55.8224896],[37.8300815,55.829153],[37.8297437,55.8305581],[37.8273855,55.8305991],[37.7774058,55.8564419],[37.781424,55.8247617],[37.7847449,55.8246153],[37.784858,55.8225041],[37.7664619,55.8181272],[37.7471843,55.8106261],[37.7459289,55.80903],[37.7461384,55.8013561],[37.7785026,55.8092981],[37.7963504,55.8101483]]]}},{"type":"Feature","id":"d1319245","properties":{"id":"d1319245","name":"Измайлово","nameEn":"Izmaylovo","tier":"commons","price":2,"area":15,"okrug":"ВАО","okrugEn":"EAO","center":[37.77631,55.78751]},"geometry":{"type":"Polygon","coordinates":[[[37.8013254,55.7680246],[37.7994548,55.7932395],[37.8055777,55.7933444],[37.8051168,55.8028665],[37.7522201,55.802238],[37.7461384,55.8013561],[37.7459872,55.7977425],[37.7429517,55.7881548],[37.7440225,55.7760571],[37.7453479,55.7700527],[37.7480395,55.7700472],[37.7485658,55.7659353],[37.7509311,55.7645231],[37.7536978,55.7596111],[37.7786727,55.7661065],[37.7918459,55.7661645],[37.8013254,55.7680246]]]}},{"type":"Feature","id":"d1319263","properties":{"id":"d1319263","name":"Ивановское","nameEn":"Ivanovskoye","tier":"commons","price":2,"area":10.1,"okrug":"ВАО","okrugEn":"EAO","center":[37.82243,55.76898]},"geometry":{"type":"Polygon","coordinates":[[[37.8012406,55.7680066],[37.8013713,55.7661514],[37.7997561,55.7624061],[37.8005785,55.7608886],[37.8269788,55.757673],[37.8237706,55.7506602],[37.8307131,55.7494736],[37.827627,55.7469509],[37.8280834,55.7461576],[37.8426838,55.749073],[37.8434979,55.7669072],[37.8459341,55.7686145],[37.8436249,55.7725573],[37.8434007,55.7747346],[37.8457574,55.7770065],[37.8506765,55.7785667],[37.8455574,55.7782083],[37.8431377,55.7792395],[37.8420251,55.7889634],[37.8341552,55.7876543],[37.8299659,55.7893253],[37.8235357,55.7902185],[37.8231829,55.788951],[37.799932,55.7882733],[37.8012406,55.7680066]]]}},{"type":"Feature","id":"d2162195","properties":{"id":"d2162195","name":"Басманный","nameEn":"Basmanny","tier":"center","price":25,"area":8.4,"okrug":"ЦАО","okrugEn":"CAO","center":[37.66347,55.76487]},"geometry":{"type":"Polygon","coordinates":[[[37.6622711,55.7542505],[37.6642273,55.752764],[37.6662121,55.7531496],[37.6705308,55.7507488],[37.6730606,55.7534343],[37.6703968,55.7576028],[37.6712776,55.758803],[37.682588,55.7595356],[37.6858386,55.7620447],[37.6858452,55.7639835],[37.6890397,55.7677739],[37.6921989,55.7694899],[37.6972239,55.7668218],[37.7135295,55.7752599],[37.7087898,55.7796227],[37.7031812,55.7815238],[37.6847167,55.781603],[37.684842,55.7808113],[37.6801021,55.7771195],[37.6758868,55.7783862],[37.6644256,55.7733076],[37.6629987,55.7697322],[37.6446919,55.7684735],[37.6372925,55.7651344],[37.6312132,55.760257],[37.6278676,55.759523],[37.6350128,55.7538811],[37.6369656,55.7542043],[37.6395118,55.7531166],[37.6495062,55.7529927],[37.6564048,55.7547533],[37.6622711,55.7542505]]]}}]}