{"type":"FeatureCollection","features":[{"type":"Feature","geometry":{"type":"Polygon","coordinates":[[[28.8013839018977,41.13719181461234],[28.66714628090055,40.915784835290786],[28.861361188539725,40.715052429724],[29.189080546454548,40.73538902727786],[29.324167446506994,40.956387513253894],[29.130694773011122,41.15745849361157],[28.8013839018977,41.13719181461234]]]},"properties":{"id":"h841ec91ffffffff","name":"Босфор","nameEn":"Bosphorus","tier":"landmark","price":0,"area":1770,"okrug":"strait","okrugEn":"strait","center":[28.995716110326036,40.93656223396365],"water":true}},{"type":"Feature","geometry":{"type":"Polygon","coordinates":[[[26.43711277150915,40.32064962241765],[26.309371597025713,40.09457223409747],[26.507897064569057,39.896300373543525],[26.833594543644303,39.92373172397758],[26.962299363116948,40.14944159752783],[26.764351752020858,40.348088502495344],[26.43711277150915,40.32064962241765]]]},"properties":{"id":"h841eca1ffffffff","name":"Дарданеллы","nameEn":"Dardanelles","tier":"landmark","price":0,"area":1770,"okrug":"strait","okrugEn":"strait","center":[26.63581735592285,40.12247477837383],"water":true}},{"type":"Feature","geometry":{"type":"Polygon","coordinates":[[[-5.275918851837534,36.35103999901251],[-5.545113972184486,36.25287449368556],[-5.577989995068937,36.0073203773117],[-5.343084664033955,35.86058971383503],[-5.0754401520361325,35.95866951266097],[-5.0411561255975545,36.203564284899784],[-5.275918851837534,36.35103999901251]]]},"properties":{"id":"h84391abffffffff","name":"Гибралтарский пролив","nameEn":"Strait of Gibraltar","tier":"landmark","price":0,"area":1770,"okrug":"strait","okrugEn":"strait","center":[-5.30960191869116,36.10585368097688],"water":true}},{"type":"Feature","geometry":{"type":"Polygon","coordinates":[[[55.768975128670206,26.64293844762486],[55.855642252146815,26.428457963081218],[56.11111270708135,26.372067094554744],[56.28143241558796,26.53001798382668],[56.1957985070009,26.745301777701147],[55.93880486158813,26.801832105570075],[55.768975128670206,26.64293844762486]]]},"properties":{"id":"h8443133ffffffff","name":"Ормузский пролив","nameEn":"Strait of Hormuz","tier":"landmark","price":0,"area":1770,"okrug":"strait","okrugEn":"strait","center":[56.02521804471945,26.586732217937705],"water":true}},{"type":"Feature","geometry":{"type":"Polygon","coordinates":[[[101.57479819321925,2.407066322259935],[101.5979162164897,2.658765075406632],[101.39042353304804,2.8020933890326423],[101.15976266996617,2.6933864279451214],[101.13694575195662,2.4414674027164005],[101.34448765674611,2.298474349249831],[101.57479819321925,2.407066322259935]]]},"properties":{"id":"h846505bffffffff","name":"Малаккский пролив","nameEn":"Strait of Malacca","tier":"landmark","price":0,"area":1770,"okrug":"strait","okrugEn":"strait","center":[101.36743884498503,2.5501497269418008],"water":true}},{"type":"Feature","geometry":{"type":"Polygon","coordinates":[[[43.38424153747237,12.873758675443954],[43.2656721566423,12.670666044430904],[43.376142656569435,12.484541684139597],[43.604367560178034,12.501162046016788],[43.722924062788714,12.703455559426637],[43.613271307205316,12.889926178098994],[43.38424153747237,12.873758675443954]]]},"properties":{"id":"h8452f3dffffffff","name":"Баб-эль-Мандеб","nameEn":"Bab-el-Mandeb","tier":"landmark","price":0,"area":1770,"okrug":"strait","okrugEn":"strait","center":[43.4945648861585,12.687178723313206],"water":true}},{"type":"Feature","geometry":{"type":"Polygon","coordinates":[[[1.6991611631619918,51.22483323754895],[1.3754267608770263,51.17077792679788],[1.311130897033713,50.95276748567653],[1.568833955012528,50.789488768927015],[1.8900337314362685,50.84370887355051],[1.9560519872191293,51.06104150490253],[1.6991611631619918,51.22483323754895]]]},"properties":{"id":"h8419481ffffffff","name":"Ла-Манш (Дувр)","nameEn":"Strait of Dover","tier":"landmark","price":0,"area":1770,"okrug":"strait","okrugEn":"strait","center":[1.6337703008092854,51.007441472340304],"water":true}},{"type":"Feature","geometry":{"type":"Polygon","coordinates":[[[-169.3650967587334,66.156323007032],[-169.78130595022563,65.9765799217081],[-169.61774151894517,65.74880873101176],[-169.0472084805272,65.69978048442007],[-168.63117821024417,65.87710517803315],[-168.78541407261903,66.10586027082621],[-169.3650967587334,66.156323007032]]]},"properties":{"id":"h840d88bffffffff","name":"Берингов пролив","nameEn":"Bering Strait","tier":"landmark","price":0,"area":1770,"okrug":"strait","okrugEn":"strait","center":[-169.20454973859424,65.9278675973349],"water":true}},{"type":"Feature","geometry":{"type":"Polygon","coordinates":[[[36.397478295405,45.461251766581995],[36.241169510527875,45.2620687693609],[36.42144745932215,45.05831589453834],[36.75674771129363,45.05355723090102],[36.913492454145945,45.25227351324901],[36.734510733645486,45.45621491490343],[36.397478295405,45.461251766581995]]]},"properties":{"id":"h842d76bffffffff","name":"Керченский пролив","nameEn":"Kerch Strait","tier":"landmark","price":0,"area":1770,"okrug":"strait","okrugEn":"strait","center":[36.5776569105202,45.25765987300814],"water":true}},{"type":"Feature","geometry":{"type":"Polygon","coordinates":[[[119.40696884560255,24.55792183023698],[119.37238854739338,24.3392700556596],[119.5548429356137,24.182981809647043],[119.77826243475201,24.285885151261215],[119.81305707715062,24.50450680169584],[119.62412140542915,24.619784944488785],[119.40696884560255,24.55792183023698]]]},"properties":{"id":"h844ba6dffffffff","name":"Тайваньский пролив","nameEn":"Taiwan Strait","tier":"landmark","price":0,"area":1770,"okrug":"strait","okrugEn":"strait","center":[119.58946265473877,24.401641939147808],"water":true}},{"type":"Feature","geometry":{"type":"Polygon","coordinates":[[[106.07755098698114,-6.3591457928520185],[106.10289155472053,-6.125094877207303],[105.90706554551804,-5.996426644376598],[105.68571480768463,-6.102271157882992],[105.6606196487974,-6.336652715909921],[105.8566287833747,-6.464860235009872],[106.07755098698114,-6.3591457928520185]]]},"properties":{"id":"h848c13bffffffff","name":"Зондский пролив","nameEn":"Sunda Strait","tier":"landmark","price":0,"area":1770,"okrug":"strait","okrugEn":"strait","center":[105.88183027384451,-6.230905442488959],"water":true}},{"type":"Feature","geometry":{"type":"Polygon","coordinates":[[[-70.60989468887054,-53.62123075731883],[-70.38829392025504,-53.43838506401969],[-70.51687084566404,-53.22167507966271],[-70.86532837835709,-53.186699448478514],[-71.08869250625976,-53.36882948754031],[-70.96185892473468,-53.5866515603819],[-70.60989468887054,-53.62123075731883]]]},"properties":{"id":"h84df68bffffffff","name":"Магелланов пролив","nameEn":"Strait of Magellan","tier":"landmark","price":0,"area":1770,"okrug":"strait","okrugEn":"strait","center":[-70.73817789944655,-53.4041792751748],"water":true}},{"type":"Feature","geometry":{"type":"Polygon","coordinates":[[[12.353546327258256,55.80335405461359],[12.243461296700781,55.605028740549365],[12.517338726089541,55.47080020154532],[12.901880149865152,55.53443156197633],[13.014270156228894,55.73262985778209],[12.739822958959076,55.86732673911361],[12.353546327258256,55.80335405461359]]]},"properties":{"id":"h841f059ffffffff","name":"Эресунн","nameEn":"Øresund","tier":"landmark","price":0,"area":1770,"okrug":"strait","okrugEn":"strait","center":[12.628192104308742,55.66942549963285],"water":true}},{"type":"Feature","geometry":{"type":"Polygon","coordinates":[[[32.28433837128113,31.099783606851684],[32.157042441793145,30.87067729872415],[32.32301714361408,30.65952472716883],[32.61552247304199,30.67712377377751],[32.743342031468174,30.905669411482293],[32.578139168403624,31.117176639823068],[32.28433837128113,31.099783606851684]]]},"properties":{"id":"h843e60bffffffff","name":"Суэцкий канал","nameEn":"Suez Canal","tier":"landmark","price":0,"area":1770,"okrug":"canal","okrugEn":"canal","center":[32.45033022053066,30.888515178013648],"water":true}},{"type":"Feature","geometry":{"type":"Polygon","coordinates":[[[-79.7190303523406,9.300587299286198],[-79.92025182925342,9.173504407978163],[-79.89896304653632,8.943845025709924],[-79.67616396227614,8.841437459621948],[-79.47495549155084,8.968940996325989],[-79.49653231101516,9.198429954010205],[-79.7190303523406,9.300587299286198]]]},"properties":{"id":"h8466a51ffffffff","name":"Панамский канал","nameEn":"Panama Canal","tier":"landmark","price":0,"area":1770,"okrug":"canal","okrugEn":"canal","center":[-79.69761240838052,9.071323224898292],"water":true}},{"type":"Feature","geometry":{"type":"Polygon","coordinates":[[[8.83302332162396,54.235589848631165],[8.738638041392367,54.03077284967623],[9.008957392202362,53.900933518793764],[9.374530816292086,53.975513702351726],[9.471205238893415,54.18031972839119],[9.200023065408862,54.31055953276714],[8.83302332162396,54.235589848631165]]]},"properties":{"id":"h841f333ffffffff","name":"Кильский канал","nameEn":"Kiel Canal","tier":"landmark","price":0,"area":1770,"okrug":"canal","okrugEn":"canal","center":[9.104156758409356,54.10608105745267],"water":true}},{"type":"Feature","geometry":{"type":"Polygon","coordinates":[[[22.870541970699815,38.21696515269744],[22.754162161175188,37.983542598121375],[22.95615167234982,37.7884971174404],[23.2742052459522,37.826451969726556],[23.39167811296636,38.059580384964114],[23.190012000369904,38.2550493110137],[22.870541970699815,38.21696515269744]]]},"properties":{"id":"h841eda5ffffffff","name":"Коринфский канал","nameEn":"Corinth Canal","tier":"landmark","price":0,"area":1770,"okrug":"canal","okrugEn":"canal","center":[23.072792359949485,38.021996233781046],"water":true}},{"type":"Feature","geometry":{"type":"Polygon","coordinates":[[[-122.27479015180236,37.560015298456165],[-122.05507867477363,37.733399234997535],[-122.12549701735607,37.963586528250644],[-122.41644817797754,38.0199459867901],[-122.63565134529564,37.84628048792575],[-122.56441735732743,37.61653827043709],[-122.27479015180236,37.560015298456165]]]},"properties":{"id":"h8428309ffffffff","name":"Золотые Ворота","nameEn":"Golden Gate","tier":"landmark","price":0,"area":1770,"okrug":"harbour","okrugEn":"harbour","center":[-122.34547859788444,37.790261155803734],"water":true}},{"type":"Feature","geometry":{"type":"Polygon","coordinates":[[[114.33596085215501,21.90777522586274],[114.36826546385981,22.13920312540604],[114.17229221365031,22.29435487317916],[113.94354291126936,22.218006237456496],[113.9114265374319,21.986120896084362],[114.10786975454785,21.831040987221094],[114.33596085215501,21.90777522586274]]]},"properties":{"id":"h8441035ffffffff","name":"Гавань Виктория","nameEn":"Victoria Harbour","tier":"landmark","price":0,"area":1770,"okrug":"harbour","okrugEn":"harbour","center":[114.14006056551662,22.062933855124413],"water":true}},{"type":"Feature","geometry":{"type":"Polygon","coordinates":[[[103.8580471776293,1.0939177196379497],[103.88259624079902,1.3428719305134016],[103.67877790119992,1.4844132872615774],[103.45028686365306,1.3766242209845927],[103.42601654626405,1.1273764199532523],[103.62995749104424,0.9862101416930283],[103.8580471776293,1.0939177196379497]]]},"properties":{"id":"h846520dffffffff","name":"Марина-Бей","nameEn":"Marina Bay","tier":"landmark","price":0,"area":1770,"okrug":"harbour","okrugEn":"harbour","center":[103.65435044518091,1.2351591365755572],"water":true}},{"type":"Feature","geometry":{"type":"Polygon","coordinates":[[[151.53355291876167,-33.89567868445458],[151.57034562259295,-33.63984433366041],[151.32323122073464,-33.48535946255922],[151.03896311706083,-33.58602283609379],[151.00060402242562,-33.841609051233156],[151.2480757733122,-33.99678282914167],[151.53355291876167,-33.89567868445458]]]},"properties":{"id":"h84be0e3ffffffff","name":"Сиднейская гавань","nameEn":"Sydney Harbour","tier":"landmark","price":0,"area":1770,"okrug":"harbour","okrugEn":"harbour","center":[151.28576665961558,-33.74106908292585],"water":true}},{"type":"Feature","geometry":{"type":"Polygon","coordinates":[[[-74.09510928355922,40.80686883596396],[-74.40767147825358,40.75449786574015],[-74.5016170110577,40.53584314350223],[-74.28519490172815,40.37034063824769],[-73.97507103254466,40.4221747646793],[-73.87894390975265,40.64004466616805],[-74.09510928355922,40.80686883596396]]]},"properties":{"id":"h842a107ffffffff","name":"Нью-Йоркская гавань","nameEn":"New York Harbor","tier":"landmark","price":0,"area":1770,"okrug":"harbour","okrugEn":"harbour","center":[-74.19058989119799,40.58835064803683],"water":true}},{"type":"Feature","geometry":{"type":"Polygon","coordinates":[[[-0.06929409787987091,51.54399608943081],[-0.39822426466205063,51.485190990482394],[-0.457066500598723,51.26521391401484],[-0.18885712060027435,51.10468408424406],[0.13752763792480072,51.16358931854568],[0.19823542447060039,51.38292248124412],[-0.06929409787987091,51.54399608943081]]]},"properties":{"id":"h84194adffffffff","name":"Темза (Лондон)","nameEn":"Thames","tier":"district","price":36,"area":1770,"okrug":"river","okrugEn":"river","center":[-0.12928893280001005,51.32462352352297],"water":true}},{"type":"Feature","geometry":{"type":"Polygon","coordinates":[[[-73.68401145924518,41.077282646405536],[-73.99874140418528,41.02588873242016],[-74.09510928355922,40.80686883596396],[-73.87894390975265,40.64004466616805],[-73.56669571225196,40.69091950413698],[-73.46814453107103,40.909134105218804],[-73.68401145924518,41.077282646405536]]]},"properties":{"id":"h842a101ffffffff","name":"Гудзон (Нью-Йорк)","nameEn":"Hudson River","tier":"district","price":36,"area":1770,"okrug":"river","okrugEn":"river","center":[-73.78192799195209,40.85841614742273],"water":true}},{"type":"Feature","geometry":{"type":"Polygon","coordinates":[[[7.40244812360247,50.098528879168725],[7.318782084325051,49.8814731737505],[7.573661390592706,49.74418674145254],[7.913082540430624,49.82362082095817],[7.9987936211517665,50.04076976132114],[7.7430425630561,50.17839403395931],[7.40244812360247,50.098528879168725]]]},"properties":{"id":"h841faedffffffff","name":"Рейн","nameEn":"Rhine","tier":"district","price":36,"area":1770,"okrug":"river","okrugEn":"river","center":[7.658071943637679,49.96158240672101],"water":true}},{"type":"Feature","geometry":{"type":"Polygon","coordinates":[[[28.655278121966372,45.50805889514666],[28.514296499355623,45.29595063677868],[28.71915860634178,45.10236330293384],[29.064199870674166,45.12054628601544],[29.206131311370005,45.33226683996924],[29.002082240614474,45.52619278641514],[28.655278121966372,45.50805889514666]]]},"properties":{"id":"h841e5e7ffffffff","name":"Дунай","nameEn":"Danube","tier":"commons","price":4,"area":1770,"okrug":"river","okrugEn":"river","center":[28.86027465553268,45.31463982730901],"water":true}},{"type":"Feature","geometry":{"type":"Polygon","coordinates":[[[31.025749416877872,30.35131219087367],[30.90153264044665,30.120005366124836],[31.069683835665007,29.90998388944298],[31.36135597340253,29.930881295729897],[31.48614934942377,30.1616423787835],[31.318700450200396,30.372051901050643],[31.025749416877872,30.35131219087367]]]},"properties":{"id":"h843e629ffffffff","name":"Нил","nameEn":"Nile","tier":"commons","price":2,"area":1770,"okrug":"river","okrugEn":"river","center":[31.193945271605788,30.141159478208944],"water":true}},{"type":"Feature","geometry":{"type":"Polygon","coordinates":[[[-49.87452425460043,-0.6628196494149312],[-49.678704833359284,-0.5003423076271742],[-49.71901155422041,-0.24979616039823746],[-49.95490813124194,-0.16193088047486384],[-50.150436476688654,-0.32431354383614375],[-50.110360264190625,-0.5746550959728666],[-49.87452425460043,-0.6628196494149312]]]},"properties":{"id":"h8480457ffffffff","name":"Амазонка (устье)","nameEn":"Amazon Mouth","tier":"commons","price":3,"area":1770,"okrug":"river","okrugEn":"river","center":[-49.91473414440736,-0.4122713854260028],"water":true}},{"type":"Feature","geometry":{"type":"Polygon","coordinates":[[[12.054460777015503,45.66293602932915],[11.960221174387117,45.43602150397483],[12.197405438089751,45.27643331544235],[12.529285905408756,45.343377757094856],[12.625257692907478,45.57029897382188],[12.387622609029101,45.730271313161744],[12.054460777015503,45.66293602932915]]]},"properties":{"id":"h841ea55ffffffff","name":"Большой канал (Венеция)","nameEn":"Grand Canal Venice","tier":"district","price":24,"area":1770,"okrug":"river","okrugEn":"river","center":[12.292225899042226,45.503618991706304],"water":true}},{"type":"Feature","geometry":{"type":"Polygon","coordinates":[[[107.86942557423231,53.877191108098295],[107.74631912873531,53.657162777788336],[107.97862401195182,53.475954712698304],[108.33237516407745,53.51402061493594],[108.45738573225687,53.73294905361602],[108.22676501336035,53.91491109674695],[107.86942557423231,53.877191108098295]]]},"properties":{"id":"h84256e1ffffffff","name":"Озеро Байкал","nameEn":"Lake Baikal","tier":"district","price":17,"area":1770,"okrug":"lake","okrugEn":"lake","center":[108.10213193003639,53.69564614738914],"water":true}},{"type":"Feature","geometry":{"type":"Polygon","coordinates":[[[-87.28023680310577,47.86237831273472],[-87.61878848869969,47.766816066542546],[-87.65490720144122,47.52502836464841],[-87.35606008737362,47.37894804663287],[-87.01978948316486,47.47332972151534],[-86.98009097592502,47.71496486743984],[-87.28023680310577,47.86237831273472]]]},"properties":{"id":"h8427719ffffffff","name":"Озеро Верхнее","nameEn":"Lake Superior","tier":"district","price":36,"area":1770,"okrug":"lake","okrugEn":"lake","center":[-87.3183627379297,47.62042070258991],"water":true}},{"type":"Feature","geometry":{"type":"Polygon","coordinates":[[[6.37133856069232,46.417016655689096],[6.295225618085637,46.19106315303991],[6.538115291320144,46.04741351964801],[6.857978794326406,46.129410666726095],[6.93595361097175,46.35553328472598],[6.692205974408812,46.49949198498862],[6.37133856069232,46.417016655689096]]]},"properties":{"id":"h841f9cdffffffff","name":"Женевское озеро","nameEn":"Lake Geneva","tier":"district","price":54,"area":1770,"okrug":"lake","okrugEn":"lake","center":[6.61491706867606,46.27369635823758],"water":true}},{"type":"Feature","geometry":{"type":"Polygon","coordinates":[[[9.204460341172714,46.0788896073484],[9.119128634869863,45.85225228566197],[9.359771402030876,45.70060579655842],[9.686411219309822,45.775247345310646],[9.773553833100976,46.001972688128845],[9.532250123457684,46.15397080087273],[9.204460341172714,46.0788896073484]]]},"properties":{"id":"h841f999ffffffff","name":"Озеро Комо","nameEn":"Lake Como","tier":"commons","price":6,"area":1770,"okrug":"lake","okrugEn":"lake","center":[9.445743130400915,45.9275436089788],"water":true}},{"type":"Feature","geometry":{"type":"Polygon","coordinates":[[[33.190368764560354,-1.0954204339489375],[33.280641531545214,-0.8677135535755697],[33.123373819383964,-0.6744557357532414],[32.875800704860815,-0.7084740693820862],[32.785119631320725,-0.9359882926828123],[32.942417616850065,-1.1296777789593957],[33.190368764560354,-1.0954204339489375]]]},"properties":{"id":"h846acb9ffffffff","name":"Озеро Виктория","nameEn":"Lake Victoria","tier":"commons","price":2,"area":1770,"okrug":"lake","okrugEn":"lake","center":[33.032990142934075,-0.9018445780572484],"water":true}}]}